postcode,locality,region,long,lat,territory,island,country
0110,Whangarei Central,Northland,174.327,-35.749,Whangarei,North Island,NZ
0112,Kensington,Northland,174.3001,-35.693,Whangarei,North Island,NZ
0114,Hikurangi,Northland,174.2815,-35.5909,Whangarei,North Island,NZ
0140,Riverside,Northland,174.3213,-35.7245,Whangarei District,North Island,NZ
0141,Otangarei,Northland,174.3008,-35.6834,Whangarei District,North Island,NZ
0142,Sherwood Rise,Northland,174.3681,-35.7546,Whangarei District,North Island,NZ
0143,Morningside,Northland,174.3054,-35.7343,Whangarei District,North Island,NZ
0144,Tikipunga,Northland,174.3266,-35.6866,Whangarei District,North Island,NZ
0145,Kensington,Northland,174.3207,-35.7085,Whangarei District,North Island,NZ
0146,Maungakaramea,Northland,174.2048,-35.8451,Whangarei District,North Island,NZ
0147,Woodhill,Northland,174.308,-35.7429,Whangarei District,North Island,NZ
0148,Woodhill,Northland,174.3152,-35.7512,Whangarei District,North Island,NZ
0149,Riverside,Northland,174.3259,-35.7247,Whangarei District,North Island,NZ
0150,Hikurangi,Northland,174.2863,-35.5979,Whangarei District,North Island,NZ
0151,Ruakaka,Northland,174.4554,-35.8751,Whangarei District,North Island,NZ
0152,Maungatapere,Northland,174.2081,-35.7549,Whangarei District,North Island,NZ
0153,Tutukaka,Northland,174.522,-35.6129,Whangarei District,North Island,NZ
0154,Ngunguru,Northland,174.5041,-35.6297,Whangarei District,North Island,NZ
0170,Puwera,Northland,174.268,-35.7762,Whangarei District,North Island,NZ
0171,Mata,Northland,174.3925,-35.8556,Whangarei District,North Island,NZ
0172,Parakao,Northland,173.9353,-35.7039,Kaipara District,North Island,NZ
0173,Kiripaka,Northland,174.4391,-35.6147,Whangarei District,North Island,NZ
0174,Whangarei Heads,Northland,174.4823,-35.8069,Whangarei District,North Island,NZ
0175,Tahere,Northland,174.4312,-35.6943,Whangarei District,North Island,NZ
0176,Moengawahine,Northland,174.1057,-35.6306,Whangarei District,North Island,NZ
0178,Maungakaramea,Northland,174.2236,-35.852,Kaipara District,North Island,NZ
0179,Maungatapere,Northland,174.1728,-35.7562,Whangarei District,North Island,NZ
0181,Marua,Northland,174.3839,-35.5606,Whangarei District,North Island,NZ
0182,Hukerenui,Northland,174.1879,-35.4967,Far North District,North Island,NZ
0184,Whangaruru North,Northland,174.3023,-35.3593,Whangarei District,North Island,NZ
0185,Ruatangata East,Northland,174.216,-35.6304,Whangarei District,North Island,NZ
0192,Rukuwai,Northland,174.4705,-35.7429,Whangarei District,North Island,NZ
0193,Waiotira,Northland,174.196,-35.9554,Kaipara District,North Island,NZ
0200,Paihia,Northland,174.0975,-35.3073,Far North,North Island,NZ
0241,Opua,Northland,174.1206,-35.3124,Far North District,North Island,NZ
0242,Russell,Northland,174.1228,-35.2628,Far North District,North Island,NZ
0243,Kawakawa,Northland,174.0672,-35.3799,Far North District,North Island,NZ
0244,Moerewa,Northland,174.0144,-35.3875,Far North District,North Island,NZ
0245,Kerikeri,Northland,173.9487,-35.2289,Far North District,North Island,NZ
0246,Waipapa,Northland,173.9167,-35.206,Far North District,North Island,NZ
0247,Paihia,Northland,174.0915,-35.282,Far North District,North Island,NZ
0271,Haruru,Northland,174.0397,-35.2851,Far North District,North Island,NZ
0272,Manawaora,Northland,174.1759,-35.2844,Far North District,North Island,NZ
0281,Pokere,Northland,174.0032,-35.4904,Far North District,North Island,NZ
0282,Karetu,Northland,174.1364,-35.375,Far North District,North Island,NZ
0283,Waihaha,Northland,174.1925,-35.3488,Far North District,North Island,NZ
0293,Puketona,Northland,173.9724,-35.2621,Far North District,North Island,NZ
0294,Purerua,Northland,174.0225,-35.1578,Far North District,North Island,NZ
0295,Waipapa,Northland,173.876,-35.1769,Far North District,North Island,NZ
0310,Turiwiri,Northland,173.8785,-35.9542,Kaipara,North Island,NZ
0340,Dargaville,Northland,173.8697,-35.9413,Kaipara District,North Island,NZ
0341,Te Kopura,Northland,173.923,-36.0309,Kaipara District,North Island,NZ
0370,Arapohue,Northland,174.0199,-36.0004,Kaipara District,North Island,NZ
0371,Redhill,Northland,173.8602,-36.0523,Kaipara District,North Island,NZ
0372,Kairara,Northland,173.8585,-35.8194,Kaipara District,North Island,NZ
0373,Mamaranui,Northland,173.7106,-35.8591,Kaipara District,North Island,NZ
0374,Arapohue,Northland,173.9916,-35.9673,Kaipara District,North Island,NZ
0376,Tutamoe,Northland,173.6147,-35.6467,Kaipara District,North Island,NZ
0377,Baylys Beach,Northland,173.7818,-35.9516,Kaipara District,North Island,NZ
0379,Whatoro,Northland,173.6729,-35.7555,Kaipara District,North Island,NZ
0381,Kirikopuni,Northland,174.0082,-35.8384,Kaipara District,North Island,NZ
0391,Tangaihe,Northland,174.038,-36.2126,Kaipara District,North Island,NZ
0420,Cable Bay,Northland,173.4958,-35.0008,Far North,North Island,NZ
0440,Kaikohe,Northland,173.7986,-35.4081,Far North District,North Island,NZ
0441,Kaitaia,Northland,173.2637,-35.114,Far North District,North Island,NZ
0442,Mangonui,Northland,173.5366,-34.9896,Far North District,North Island,NZ
0443,Rawene,Northland,173.5056,-35.3932,Far North District,North Island,NZ
0444,Omapere,Northland,173.3862,-35.5367,Far North District,North Island,NZ
0445,Opononi,Northland,173.3924,-35.5046,Far North District,North Island,NZ
0446,Waimamaku,Northland,173.4759,-35.556,Far North District,North Island,NZ
0447,Okaihau,Northland,173.7713,-35.3201,Far North District,North Island,NZ
0448,Kaeo,Northland,173.7805,-35.1006,Far North District,North Island,NZ
0449,Ahipara,Northland,173.1534,-35.171,Far North District,North Island,NZ
0451,Awanui,Northland,173.2565,-35.048,Far North District,North Island,NZ
0453,Kohukohu,Northland,173.5461,-35.3582,Far North District,North Island,NZ
0460,Pukenui,Northland,173.1178,-34.8149,Far North District,North Island,NZ
0462,Broadwood,Northland,173.3896,-35.2592,Far North District,North Island,NZ
0472,Pakaraka,Northland,173.9337,-35.3618,Far North District,North Island,NZ
0473,Waima,Northland,173.5549,-35.4963,Far North District,North Island,NZ
0474,Tautoro,Northland,173.8144,-35.5071,Far North District,North Island,NZ
0475,Marangai,Northland,173.6987,-35.3278,Far North District,North Island,NZ
0476,Umawera,Northland,173.6264,-35.2385,Far North District,North Island,NZ
0478,Kaeo,Northland,173.7895,-35.0974,Far North District,North Island,NZ
0479,Saies,Northland,173.6798,-35.0791,Far North District,North Island,NZ
0481,Manukau,Northland,173.2382,-35.2366,Far North District,North Island,NZ
0482,Kaiaka,Northland,173.4133,-35.1122,Far North District,North Island,NZ
0483,Lake Ohia,Northland,173.3595,-34.9593,Far North District,North Island,NZ
0484,Te Kao,Northland,172.924,-34.6874,Far North District,North Island,NZ
0486,Waiharera,Northland,173.2179,-34.9757,Far North District,North Island,NZ
0491,Broadwood,Northland,173.4408,-35.2764,Far North District,North Island,NZ
0492,Panguru,Northland,173.3623,-35.4197,Far North District,North Island,NZ
0494,Paraoanui,Northland,173.621,-35.0088,Far North District,North Island,NZ
0496,Pawarenga,Northland,173.3046,-35.3437,Far North District,North Island,NZ
0505,Mangawhai,Northland,174.5842,-36.0858,Kaipara,North Island,NZ
0520,Maungaturoto,Northland,174.3568,-36.1077,Kaipara,North Island,NZ
0540,Mangawhai,Northland,174.5746,-36.1258,Kaipara District,North Island,NZ
0541,Mangawhai Heads,Northland,174.5874,-36.0946,Kaipara District,North Island,NZ
0542,Kaiwaka,Northland,174.4428,-36.1642,Kaipara District,North Island,NZ
0543,Paparoa,Northland,174.2315,-36.103,Kaipara District,North Island,NZ
0545,Waipu,Northland,174.4453,-35.9842,Whangarei District,North Island,NZ
0547,Rowsells,Northland,174.3537,-36.1102,Kaipara District,North Island,NZ
0549,Ruawai,Northland,174.0233,-36.1365,Kaipara District,North Island,NZ
0550,Matakohe,Northland,174.1825,-36.1298,Kaipara District,North Island,NZ
0571,Mareretu,Northland,174.2547,-36.053,Kaipara District,North Island,NZ
0573,Kaiwaka,Northland,174.429,-36.1881,Kaipara District,North Island,NZ
0582,Waipu,Northland,174.4499,-36.0052,Whangarei District,North Island,NZ
0583,Marohemo,Northland,174.2892,-36.1641,Kaipara District,North Island,NZ
0587,Ranganui,Northland,174.4094,-36.1441,Kaipara District,North Island,NZ
0588,Maungaturoto,Northland,174.3737,-36.0723,Kaipara District,North Island,NZ
0589,Huarau,Northland,174.3167,-36.0601,Kaipara District,North Island,NZ
0591,Ruawai,Northland,174.0709,-36.1195,Kaipara District,North Island,NZ
0592,Rehia,Northland,174.0388,-36.0549,Kaipara District,North Island,NZ
0593,Pahi,Northland,174.2067,-36.1962,Kaipara District,North Island,NZ
0594,Matakohe,Northland,174.1446,-36.0672,Kaipara District,North Island,NZ
0600,New Lynn,Auckland,174.6922,-36.9158,Auckland,North Island,NZ
0602,Glen Eden,Auckland,174.6474,-36.9042,Auckland,North Island,NZ
0604,Titirangi,Auckland,174.5827,-36.9808,Auckland,North Island,NZ
0610,Te Atatu Peninsula,Auckland,174.6466,-36.8531,Auckland,North Island,NZ
0612,Henderson,Auckland,174.5918,-36.8988,Auckland,North Island,NZ
0614,Massey,Auckland,174.584,-36.8546,Auckland,North Island,NZ
0618,Whenuapai,Auckland,174.6378,-36.7987,Auckland,North Island,NZ
0620,Milford,Auckland,174.7548,-36.7661,Auckland,North Island,NZ
0622,Takapuna,Auckland,174.778,-36.801,Auckland,North Island,NZ
0624,Devonport,Auckland,174.7918,-36.8236,Auckland,North Island,NZ
0626,Birkenhead,Auckland,174.7083,-36.8058,Auckland,North Island,NZ
0627,Northcote,Auckland,174.7462,-36.798,Auckland,North Island,NZ
0629,Glenfield,Auckland,174.7199,-36.7753,Auckland,North Island,NZ
0630,Torbay,Auckland,174.7447,-36.7215,Auckland,North Island,NZ
0632,Albany,Auckland,174.6948,-36.7443,Auckland,North Island,NZ
0640,New Lynn,Auckland,174.6831,-36.9079,Auckland,North Island,NZ
0641,Glen Eden,Auckland,174.652,-36.9118,Auckland,North Island,NZ
0642,Titirangi,Auckland,174.6575,-36.9378,Auckland,North Island,NZ
0643,Green Bay,Auckland,174.6801,-36.9306,Auckland,North Island,NZ
0644,Blockhouse Bay,Auckland,174.7015,-36.9234,Auckland,North Island,NZ
0645,Glendene,Auckland,174.6446,-36.8869,Auckland,North Island,NZ
0650,Sunnyvale,Auckland,174.6347,-36.881,Auckland,North Island,NZ
0651,Te Atatu,Auckland,174.6515,-36.8422,Auckland,North Island,NZ
0652,Te Atatu South,Auckland,174.6463,-36.865,Auckland,North Island,NZ
0653,Swanson,Auckland,174.58,-36.8655,Auckland,North Island,NZ
0654,Te Atatu South,Auckland,174.6298,-36.8557,Auckland,North Island,NZ
0655,Swanson,Auckland,174.6011,-36.8639,Auckland,North Island,NZ
0656,Massey East,Auckland,174.6224,-36.8332,Auckland,North Island,NZ
0657,West Harbour,Auckland,174.6105,-36.8222,Auckland,North Island,NZ
0660,Waitakere,Auckland,174.5447,-36.8492,Auckland,North Island,NZ
0661,Te Atatu Peninsula,Auckland,174.6446,-36.8107,Auckland,North Island,NZ
0662,Brighams Creek,Auckland,174.6163,-36.7935,Auckland,North Island,NZ
0663,Massey East,Auckland,174.6292,-36.8185,Auckland,North Island,NZ
0740,Hauraki,Auckland,174.7729,-36.7875,Auckland,North Island,NZ
0741,Milford,Auckland,174.7661,-36.7728,Auckland,North Island,NZ
0742,Torbay,Auckland,174.7506,-36.6949,Auckland,North Island,NZ
0743,Forrest Hill,Auckland,174.7467,-36.7512,Auckland,North Island,NZ
0744,Devenport,Auckland,174.7969,-36.8303,Auckland,North Island,NZ
0745,Glenfield,Auckland,174.7395,-36.768,Auckland,North Island,NZ
0746,Birkenhead,Auckland,174.7254,-36.8123,Auckland,North Island,NZ
0747,Marlborough,Auckland,174.7216,-36.782,Auckland,North Island,NZ
0748,North Shore,Auckland,174.7446,-36.8017,Auckland,North Island,NZ
0749,Birkdale,Auckland,174.6872,-36.7925,Auckland,North Island,NZ
0750,Takapuna,Auckland,174.7782,-36.7969,Auckland,North Island,NZ
0751,Glenfield,Auckland,174.7139,-36.7513,Auckland,North Island,NZ
0752,Albany,Auckland,174.7075,-36.7313,Auckland,North Island,NZ
0753,Browns Bay,Auckland,174.7484,-36.7155,Auckland,North Island,NZ
0754,Mairangi Bay,Auckland,174.7534,-36.7384,Auckland,North Island,NZ
0755,Albany,Auckland,174.6952,-36.7246,Auckland,North Island,NZ
0756,Paremoremo,Auckland,174.6702,-36.7758,Auckland,North Island,NZ
0757,Forrest Hill,Auckland,174.7248,-36.743,Auckland,North Island,NZ
0758,Mairangi Bay,Auckland,174.7419,-36.7397,Auckland,North Island,NZ
0772,Karekare,Auckland,174.4894,-36.9656,Auckland,North Island,NZ
0781,Piha,Auckland,174.4855,-36.8981,Auckland,North Island,NZ
0782,Waitakere,Auckland,174.5226,-36.8333,Auckland,North Island,NZ
0792,Red Vale,Auckland,174.6927,-36.6884,Auckland,North Island,NZ
0793,Coatesville,Auckland,174.6236,-36.7222,Auckland,North Island,NZ
0794,Dairy Flat,Auckland,174.6549,-36.6687,Auckland,North Island,NZ
0810,Kumeu,Auckland,174.5488,-36.7726,Auckland,North Island,NZ
0814,Whenuapai,Auckland,174.5993,-36.8061,Auckland,North Island,NZ
0840,Helensville,Auckland,174.4505,-36.6764,Auckland,North Island,NZ
0841,Huapai,Auckland,174.5548,-36.7754,Auckland,North Island,NZ
0842,Pahitoa,Auckland,174.4926,-36.7687,Auckland,North Island,NZ
0843,Kaukapakapa,Auckland,174.4933,-36.6164,Auckland,North Island,NZ
0871,Kaukapakapa,Auckland,174.5287,-36.6354,Auckland,North Island,NZ
0873,Parakakau,Auckland,174.5841,-36.5611,Auckland,North Island,NZ
0874,Parkhurst,Auckland,174.3028,-36.5652,Auckland,North Island,NZ
0875,Helensville,Auckland,174.4557,-36.6868,Auckland,North Island,NZ
0881,Woodhill,Auckland,174.4262,-36.7829,Auckland,North Island,NZ
0882,Waimauku,Auckland,174.5263,-36.7176,Auckland,North Island,NZ
0883,Pahitoa,Auckland,174.4673,-36.7604,Auckland,North Island,NZ
0891,Huapai,Auckland,174.5296,-36.7875,Auckland,North Island,NZ
0892,Kumeu,Auckland,174.571,-36.7596,Auckland,North Island,NZ
0920,Snells Beach,Auckland,174.9148,-36.308,Auckland,North Island,NZ
0930,Whangaparaoa,Auckland,174.7966,-36.6172,Auckland,North Island,NZ
0931,Hatfields Beach,Auckland,174.6853,-36.58,Auckland,North Island,NZ
0932,Stanmore Bay,Auckland,174.7063,-36.6232,Auckland,North Island,NZ
0940,Wellsford,Auckland,174.5238,-36.2938,Auckland,North Island,NZ
0941,Warkworth,Auckland,174.6639,-36.3978,Auckland,North Island,NZ
0942,Snells Beach,Auckland,174.7235,-36.4204,Auckland,North Island,NZ
0943,Whangaparaoa,Auckland,174.748,-36.6366,Auckland,North Island,NZ
0944,Silverdale,Auckland,174.6778,-36.6178,Auckland,North Island,NZ
0945,Red Beach,Auckland,174.6978,-36.6056,Auckland,North Island,NZ
0946,Orewa,Auckland,174.6943,-36.5856,Auckland,North Island,NZ
0947,Leigh,Auckland,174.8047,-36.2905,Auckland,North Island,NZ
0948,Matakana,Auckland,174.7169,-36.3519,Auckland,North Island,NZ
0950,Waiwera,Auckland,174.7058,-36.5447,Auckland,North Island,NZ
0951,Puhoi,Auckland,174.661,-36.5121,Auckland,North Island,NZ
0960,Okiwi,Auckland,175.3935,-36.1556,Auckland,North Island,NZ
0961,Okupu,Auckland,175.462,-36.2427,Auckland,North Island,NZ
0962,Tryphena,Auckland,175.4883,-36.3015,Auckland,North Island,NZ
0963,Port Fitzroy,Auckland,175.3624,-36.1639,Auckland,North Island,NZ
0972,Wayby,Auckland,174.6126,-36.3001,Auckland,North Island,NZ
0973,Wharehine,Auckland,174.447,-36.315,Auckland,North Island,NZ
0974,Te Hana,Auckland,174.6008,-36.2485,Auckland,North Island,NZ
0975,Topuni,Northland,174.5252,-36.1895,Kaipara District,North Island,NZ
0977,Wharehine,Auckland,174.3225,-36.3561,Auckland,North Island,NZ
0981,Woodcocks,Auckland,174.5979,-36.4243,Auckland,North Island,NZ
0982,Algies Bay,Auckland,174.7235,-36.4404,Auckland,North Island,NZ
0983,Pohuehue,Auckland,174.6573,-36.4709,Auckland,North Island,NZ
0984,Ahuroa,Auckland,174.5307,-36.501,Auckland,North Island,NZ
0985,Big Omaha,Auckland,174.7381,-36.3249,Auckland,North Island,NZ
0986,Tawharanui,Auckland,174.8003,-36.3544,Auckland,North Island,NZ
0991,Whangapara,Auckland,175.4287,-36.2,Auckland,North Island,NZ
0992,Silverdale,Auckland,174.6619,-36.5992,Auckland,North Island,NZ
0993,Red Beach,Auckland,174.693,-36.6374,Auckland,North Island,NZ
1010,Auckland Central,Auckland,174.9811,-36.8052,Auckland,North Island,NZ
1011,Ponsonby,Auckland,174.7336,-36.8447,Auckland,North Island,NZ
1021,Grey Lynn,Auckland,174.7432,-36.863,Auckland,North Island,NZ
1022,Western Springs,Auckland,174.7053,-36.8585,Auckland,North Island,NZ
1023,Epsom,Auckland,174.7709,-36.8872,Auckland,North Island,NZ
1024,Mt Eden,Auckland,174.7529,-36.8877,Auckland,North Island,NZ
1025,Mt Albert,Auckland,174.7238,-36.8844,Auckland,North Island,NZ
1026,Avondale,Auckland,174.6829,-36.876,Auckland,North Island,NZ
1041,Mt Roskill,Auckland,174.7335,-36.9125,Auckland,North Island,NZ
1042,Hillsborough,Auckland,174.7393,-36.9214,Auckland,North Island,NZ
1050,Remuera,Auckland,174.8042,-36.8768,Auckland,North Island,NZ
1051,Greenlane,Auckland,174.8071,-36.8917,Auckland,North Island,NZ
1052,Parnell,Auckland,174.7914,-36.857,Auckland,North Island,NZ
1060,Mt Wellington,Auckland,174.8356,-36.9177,Auckland,North Island,NZ
1061,Onehunga,Auckland,174.7991,-36.9155,Auckland,North Island,NZ
1062,OTAHUHU,Auckland,174.8483,-36.941,Auckland,North Island,NZ
1071,Orakei,Auckland,174.8482,-36.8565,Auckland,North Island,NZ
1072,Glen Innes,Auckland,174.8528,-36.8873,Auckland,North Island,NZ
1081,Waiheke Island,Auckland,175.0362,-36.7932,Auckland,North Island,NZ
1140,Mechanics Bay,Auckland,174.7692,-36.8472,Auckland,North Island,NZ
1141,Newmarket,Auckland,174.7632,-36.8507,Auckland,North Island,NZ
1142,Newton,Auckland,174.7577,-36.8478,Auckland,North Island,NZ
1143,Mechanics Bay,Auckland,174.7675,-36.8451,Auckland,North Island,NZ
1144,Freemans Bay,Auckland,174.7437,-36.8481,Auckland,North Island,NZ
1145,Grafton,Auckland,174.7579,-36.8578,Auckland,North Island,NZ
1147,Herne Bay,Auckland,174.7339,-36.846,Auckland,North Island,NZ
1148,Auckland,Auckland,174.7695,-36.8609,Auckland,North Island,NZ
1149,Parnell,Auckland,174.7773,-36.8731,Auckland,North Island,NZ
1150,Auckland,Auckland,174.7621,-36.8641,Auckland,North Island,NZ
1151,Point Resolution,Auckland,174.7811,-36.8568,Auckland,North Island,NZ
1245,Western Springs,Auckland,174.7378,-36.8654,Auckland,North Island,NZ
1246,Mount Albert,Auckland,174.7107,-36.8702,Auckland,North Island,NZ
1340,Wesley,Auckland,174.72,-36.9004,Auckland,North Island,NZ
1342,Balmoral,Auckland,174.7472,-36.8885,Auckland,North Island,NZ
1344,One Tree Hill,Auckland,174.7745,-36.8918,Auckland,North Island,NZ
1345,Royal Oak,Auckland,174.7763,-36.9117,Auckland,North Island,NZ
1346,Sandringham,Auckland,174.733,-36.8837,Auckland,North Island,NZ
1347,One Tree Hill,Auckland,174.7734,-36.9,Auckland,North Island,NZ
1348,Avondale,Auckland,174.6845,-36.8878,Auckland,North Island,NZ
1349,Epsom,Auckland,174.7619,-36.8823,Auckland,North Island,NZ
1350,Owairaka,Auckland,174.715,-36.8849,Auckland,North Island,NZ
1351,Balmoral,Auckland,174.7363,-36.893,Auckland,North Island,NZ
1352,Mount Eden,Auckland,174.744,-36.8724,Auckland,North Island,NZ
1440,Three Kings,Auckland,174.742,-36.9032,Auckland,North Island,NZ
1443,Lynfield,Auckland,174.7231,-36.9262,Auckland,North Island,NZ
1445,Waikowhai,Auckland,174.7367,-36.9202,Auckland,North Island,NZ
1446,Mount Eden,Auckland,174.7495,-36.8801,Auckland,North Island,NZ
1541,Greenlane,Auckland,174.798,-36.8804,Auckland,North Island,NZ
1542,Ellerslie,Auckland,174.8092,-36.898,Auckland,North Island,NZ
1543,Greenlane,Auckland,174.7849,-36.8823,Auckland,North Island,NZ
1544,Ellerslie,Auckland,174.8053,-36.8992,Auckland,North Island,NZ
1545,Panmure,Auckland,174.8324,-36.8961,Auckland,North Island,NZ
1546,Ellerslie,Auckland,174.8001,-36.895,Auckland,North Island,NZ
1640,Otahuhu,Auckland,174.8441,-36.9444,Auckland,North Island,NZ
1641,Panmure,Auckland,174.838,-36.9079,Auckland,North Island,NZ
1642,Mount Wellington,Auckland,174.8145,-36.9097,Auckland,North Island,NZ
1643,Onehunga,Auckland,174.7861,-36.9205,Auckland,North Island,NZ
1740,Saint Heliers,Auckland,174.8577,-36.8507,Auckland,North Island,NZ
1741,Panmure,Auckland,174.8557,-36.9005,Auckland,North Island,NZ
1742,Meadowbank,Auckland,174.8277,-36.8758,Auckland,North Island,NZ
1743,Point England,Auckland,174.8552,-36.8791,Auckland,North Island,NZ
1744,Mission Bay,Auckland,174.8288,-36.8493,Auckland,North Island,NZ
1745,Orakei,Auckland,174.8147,-36.856,Auckland,North Island,NZ
1746,New Windsor,Auckland,174.6973,-36.8975,Auckland,North Island,NZ
1840,Oneroa,Auckland,175.0105,-36.7834,Auckland,North Island,NZ
1841,Onetangi,Auckland,175.0798,-36.792,Auckland,North Island,NZ
1842,Blackpool,Auckland,175.026,-36.7938,Auckland,North Island,NZ
1843,Ostend,Auckland,175.0465,-36.796,Auckland,North Island,NZ
1971,Onetangi,Auckland,175.0922,-36.7931,Auckland,North Island,NZ
2010,Botany Downs,Auckland,174.8925,-36.9104,Auckland,North Island,NZ
2012,Bucklands Beach,Auckland,174.8978,-36.8714,Auckland,North Island,NZ
2013,East Tamaki,Auckland,174.8935,-36.9373,Auckland,North Island,NZ
2014,Howick,Auckland,174.9308,-36.898,Auckland,North Island,NZ
2016,East Tamaki,Auckland,174.9241,-36.9647,Auckland,North Island,NZ
2018,Maraetai,Auckland,175.0134,-36.8818,Auckland,North Island,NZ
2022,Mangere,Auckland,174.7817,-36.9784,Auckland,North Island,NZ
2023,Otara,Auckland,174.8822,-36.969,Auckland,North Island,NZ
2024,Mangere East,Auckland,174.8184,-36.9559,Auckland,North Island,NZ
2025,Papatoetoe,Auckland,174.8466,-36.9915,Auckland,North Island,NZ
2102,Manurewa,Auckland,174.8856,-37.0234,Auckland,North Island,NZ
2103,Weymouth,Auckland,174.8752,-37.0408,Auckland,North Island,NZ
2104,Manukau,Auckland,174.8672,-37.0011,Auckland,North Island,NZ
2105,Randwick Park,Auckland,174.9183,-37.0135,Auckland,North Island,NZ
2110,Papakura,Auckland,174.9656,-37.0609,Auckland,North Island,NZ
2112,Takanini,Auckland,174.9202,-37.045,Auckland,North Island,NZ
2113,Papakura,Auckland,174.9409,-37.0874,Auckland,North Island,NZ
2120,Pukekohe,Auckland,174.8945,-37.2088,Auckland,North Island,NZ
2121,Tuakau,Waikato,174.9395,-37.2674,Waikato District,North Island,NZ
2122,Clarks Beach,Auckland,174.6979,-37.1379,Auckland,North Island,NZ
2123,Waiuku,Auckland,174.7359,-37.2484,Auckland,North Island,NZ
2140,Pakuranga,Auckland,174.8708,-36.9121,Auckland,North Island,NZ
2141,East Tamaki,Auckland,174.8971,-36.9311,Auckland,North Island,NZ
2142,East Tamaki,Auckland,174.9122,-36.9322,Auckland,North Island,NZ
2143,Botany Downs,Auckland,174.9069,-36.8983,Auckland,North Island,NZ
2144,Eastern Beach,Auckland,174.904,-36.8681,Auckland,North Island,NZ
2145,Shelly Park,Auckland,174.9315,-36.8937,Auckland,North Island,NZ
2146,Shelly Park,Auckland,174.9392,-36.9041,Auckland,North Island,NZ
2147,Beachlands,Auckland,174.9969,-36.8825,Auckland,North Island,NZ
2148,Maraetai,Auckland,175.0343,-36.8804,Auckland,North Island,NZ
2149,Whitford,Auckland,174.965,-36.9456,Auckland,North Island,NZ
2150,Mangere,Auckland,174.7885,-36.9986,Auckland,North Island,NZ
2151,Favona,Auckland,174.7875,-36.9422,Auckland,North Island,NZ
2153,Mangere,Auckland,174.7993,-36.9702,Auckland,North Island,NZ
2154,Mangere,Auckland,174.7856,-36.9699,Auckland,North Island,NZ
2155,Papatoetoe,Auckland,174.8621,-36.9714,Auckland,North Island,NZ
2156,Papatoetoe,Auckland,174.8541,-36.9797,Auckland,North Island,NZ
2157,Wiri,Auckland,174.8767,-36.9805,Auckland,North Island,NZ
2158,Mangere East,Auckland,174.8251,-36.9665,Auckland,North Island,NZ
2159,Otara,Auckland,174.8732,-36.9611,Auckland,North Island,NZ
2160,Wiri,Auckland,174.8968,-36.9774,Auckland,North Island,NZ
2240,Homai,Auckland,174.875,-37.0068,Auckland,North Island,NZ
2241,Wiri,Auckland,174.8815,-36.992,Auckland,North Island,NZ
2242,Weymouth,Auckland,174.8692,-37.0332,Auckland,North Island,NZ
2243,Manurewa East,Auckland,174.8966,-37.022,Auckland,North Island,NZ
2244,Pahurehure,Auckland,174.9417,-37.0616,Auckland,North Island,NZ
2245,Takanini,Auckland,174.9198,-37.0392,Auckland,North Island,NZ
2246,Pahurehure,Auckland,174.9282,-37.0486,Auckland,North Island,NZ
2247,Drury,Auckland,174.9514,-37.1023,Auckland,North Island,NZ
2248,Clevedon,Auckland,175.0373,-36.9927,Auckland,North Island,NZ
2340,Pukekohe,Auckland,174.9058,-37.1999,Auckland,North Island,NZ
2341,Waiuku,Auckland,174.7286,-37.251,Auckland,North Island,NZ
2342,Tuakau,Waikato,174.9466,-37.258,Waikato District,North Island,NZ
2343,Bombay,Auckland,174.9912,-37.1862,Auckland,North Island,NZ
2344,Patumahoe,Auckland,174.829,-37.1871,Auckland,North Island,NZ
2345,Waiau Pa,Auckland,174.7647,-37.1495,Auckland,North Island,NZ
2440,Pokeno,Waikato,175.0215,-37.2457,Waikato District,North Island,NZ
2441,Meremere,Waikato,175.0694,-37.3231,Waikato District,North Island,NZ
2471,Kopuku,Auckland,175.1648,-37.2446,Auckland,North Island,NZ
2472,Pokeno,Waikato,175.0053,-37.2224,Waikato District,North Island,NZ
2473,Kaiaua,Waikato,175.2316,-37.1222,Waikato District,North Island,NZ
2474,Mercer,Waikato,175.0728,-37.2798,Waikato District,North Island,NZ
2571,Waikopua,Auckland,174.991,-36.9162,Auckland,North Island,NZ
2576,Whitford,Auckland,174.9855,-36.9781,Auckland,North Island,NZ
2577,Drury,Auckland,174.9742,-37.1147,Auckland,North Island,NZ
2578,Ramarama,Auckland,174.935,-37.1313,Auckland,North Island,NZ
2579,Ararimu,Auckland,175.0191,-37.1436,Auckland,North Island,NZ
2580,Weymouth,Auckland,174.8609,-37.1032,Auckland,North Island,NZ
2582,Clevedon,Auckland,175.0179,-36.9738,Auckland,North Island,NZ
2583,Paparimu,Auckland,175.1194,-37.0996,Auckland,North Island,NZ
2584,Opaheke,Auckland,175.0012,-37.1003,Auckland,North Island,NZ
2585,Whakatiri,Auckland,175.1648,-36.9896,Auckland,North Island,NZ
2675,Ararimu,Auckland,175.0338,-37.185,Auckland,North Island,NZ
2676,Paerata,Auckland,174.8913,-37.1735,Auckland,North Island,NZ
2677,Pukekohe East,Waikato,174.9333,-37.216,Waikato District,North Island,NZ
2678,Mauku,Auckland,174.8412,-37.2305,Auckland,North Island,NZ
2679,Waiau Pa,Auckland,174.7893,-37.1394,Auckland,North Island,NZ
2681,Glenbrook,Waikato,174.7562,-37.2045,Waikato District,North Island,NZ
2682,Otaua,Auckland,174.7493,-37.3092,Auckland,North Island,NZ
2683,Waipipi,Auckland,174.6664,-37.2288,Auckland,North Island,NZ
2684,Pollok,Auckland,174.6161,-37.1186,Auckland,North Island,NZ
2693,Te Kohanga,Waikato,174.8746,-37.3001,Waikato District,North Island,NZ
2694,Tuakau,Waikato,174.9591,-37.2626,Waikato District,North Island,NZ
2695,Kaawa,Waikato,174.8611,-37.4521,Waikato District,North Island,NZ
2696,Opuatia,Waikato,175.0016,-37.3556,Waikato District,North Island,NZ
2697,Te Kohanga,Waikato,174.871,-37.3909,Waikato District,North Island,NZ
3010,Rotorua,Bay of Plenty,176.2514,-38.1178,Rotorua,North Island,NZ
3015,Rotorua,Bay of Plenty,176.2067,-38.1483,Rotorua,North Island,NZ
3020,Mamaku,Bay of Plenty,176.0756,-38.0956,Rotorua District,North Island,NZ
3025,Murupara,Bay of Plenty,176.709,-38.4571,Whakatane District,North Island,NZ
3040,Ngapuna,Bay of Plenty,176.2507,-38.1377,Rotorua District,North Island,NZ
3041,Ngongotaha,Bay of Plenty,176.2124,-38.0805,Rotorua District,North Island,NZ
3042,Owhata,Bay of Plenty,176.2952,-38.1345,Rotorua District,North Island,NZ
3043,Whakarewarewa,Bay of Plenty,176.2567,-38.1592,Rotorua District,North Island,NZ
3044,Glenholme,Bay of Plenty,176.2375,-38.1448,Rotorua District,North Island,NZ
3045,Ngapuna,Bay of Plenty,176.2516,-38.14,Rotorua District,North Island,NZ
3046,Koutu,Bay of Plenty,176.2337,-38.1294,Rotorua District,North Island,NZ
3047,Mangakakahi,Bay of Plenty,176.2195,-38.1291,Rotorua District,North Island,NZ
3048,Tihiotonga,Bay of Plenty,176.2355,-38.1602,Rotorua District,North Island,NZ
3049,Mamaku,Bay of Plenty,176.0768,-38.0953,Rotorua District,North Island,NZ
3060,Reporoa,Waikato,176.3411,-38.436,Rotorua District,North Island,NZ
3062,Murupara,Bay of Plenty,176.7041,-38.4562,Whakatane District,North Island,NZ
3072,Tarukenga,Waikato,176.1258,-38.062,South Waikato District,North Island,NZ
3073,Waimangu,Waikato,176.4731,-38.2904,Rotorua District,North Island,NZ
3074,Tikitere,Bay of Plenty,176.4142,-38.0913,Rotorua District,North Island,NZ
3076,Punaroma,Bay of Plenty,176.362,-38.1809,Rotorua District,North Island,NZ
3077,Guthrie,Bay of Plenty,176.2239,-38.32,Rotorua District,North Island,NZ
3078,Atiamuri,Waikato,175.9947,-38.4262,South Waikato District,North Island,NZ
3079,Ruatahuna,Bay of Plenty,176.8892,-38.5567,Whakatane District,North Island,NZ
3081,Tahorakui,Waikato,176.4422,-38.6353,Taupo District,North Island,NZ
3083,Tahorakui,Waikato,176.2263,-38.4805,Rotorua District,North Island,NZ
3110,Tauranga,Bay of Plenty,176.2664,-37.6686,Tauranga,North Island,NZ
3112,Tauranga South,Bay of Plenty,176.1538,-37.7273,Tauranga,North Island,NZ
3114,Omokoroa,Bay of Plenty,176.0467,-37.6348,Western Bay of Plenty,North Island,NZ
3116,Mt Maunganui,Bay of Plenty,176.2044,-37.6536,Tauranga,North Island,NZ
3118,Papamoa Beach,Bay of Plenty,176.3294,-37.7146,Tauranga City,North Island,NZ
3119,Te Puke,Bay of Plenty,176.3267,-37.7774,Western Bay of Plenty District,North Island,NZ
3120,Papamoa,Bay of Plenty,176.9225,-37.9555,Whakatane,North Island,NZ
3121,Ohope,Bay of Plenty,177.084,-37.97,Whakatane,North Island,NZ
3122,Opotiki,Bay of Plenty,177.2788,-38.0138,Opotiki District,North Island,NZ
3123,Taneatua,Bay of Plenty,177.0066,-38.0646,Whakatane District,North Island,NZ
3127,Kawerau,Bay of Plenty,176.6964,-38.0905,Kawerau District,North Island,NZ
3129,Katikati,Bay of Plenty,175.9175,-37.5499,Western Bay of Plenty District,North Island,NZ
3140,Tauranga,Bay of Plenty,176.1622,-37.6934,Western Bay of Plenty District,North Island,NZ
3141,Tauranga,Bay of Plenty,176.1682,-37.685,Tauranga City,North Island,NZ
3142,Greerton,Bay of Plenty,176.1332,-37.7267,Tauranga City,North Island,NZ
3143,Tauranga,Bay of Plenty,176.1649,-37.6739,Tauranga City,North Island,NZ
3144,Tauranga,Bay of Plenty,176.1597,-37.6982,Tauranga City,North Island,NZ
3145,Otumoetai,Bay of Plenty,176.1405,-37.6684,Tauranga City,North Island,NZ
3146,Judea,Bay of Plenty,176.1352,-37.6898,Tauranga City,North Island,NZ
3147,Bethlehem,Bay of Plenty,176.1094,-37.6959,Tauranga City,North Island,NZ
3148,Hairini,Bay of Plenty,176.1793,-37.7162,Tauranga City,North Island,NZ
3149,Omanu,Bay of Plenty,176.2004,-37.6553,Tauranga City,North Island,NZ
3150,Mount Maunganui,Bay of Plenty,176.1836,-37.6381,Tauranga City,North Island,NZ
3151,Kairua,Bay of Plenty,176.2838,-37.7006,Tauranga City,North Island,NZ
3152,Omanu Beach,Bay of Plenty,176.223,-37.676,Tauranga City,North Island,NZ
3153,Te Puke,Bay of Plenty,176.3275,-37.7849,Western Bay of Plenty District,North Island,NZ
3154,Omokoroa Beach,Bay of Plenty,176.0523,-37.6326,Western Bay of Plenty District,North Island,NZ
3158,Whakatane,Bay of Plenty,176.9959,-37.9524,Whakatane District,North Island,NZ
3159,Poroporo,Bay of Plenty,176.9819,-37.9621,Whakatane District,North Island,NZ
3160,Edgecumbe,Bay of Plenty,176.8264,-37.9752,Whakatane District,North Island,NZ
3161,Ohope Beach,Bay of Plenty,177.0361,-37.9642,Whakatane District,North Island,NZ
3162,Opotiki,Bay of Plenty,177.2847,-38.0057,Opotiki District,North Island,NZ
3163,Taneatua,Bay of Plenty,177.0034,-38.0653,Whakatane District,North Island,NZ
3164,Waimana,Bay of Plenty,177.0767,-38.1431,Whakatane District,North Island,NZ
3166,Katikati,Bay of Plenty,175.9174,-37.5528,Western Bay of Plenty District,North Island,NZ
3167,Te Teko,Bay of Plenty,176.7976,-38.0362,Whakatane District,North Island,NZ
3168,Matata,Bay of Plenty,176.7586,-37.8886,Whakatane District,North Island,NZ
3169,Kawerau,Bay of Plenty,176.7012,-38.0867,Kawerau District,North Island,NZ
3171,Lower Kaimai,Bay of Plenty,176.025,-37.8097,Tauranga City,North Island,NZ
3172,Omokoroa Beach,Bay of Plenty,176.0675,-37.5886,Western Bay of Plenty District,North Island,NZ
3173,Oropi,Bay of Plenty,176.1706,-37.8386,Western Bay of Plenty District,North Island,NZ
3175,Upper Papamoa,Bay of Plenty,176.2216,-37.7412,Tauranga City,North Island,NZ
3176,Whakamarama,Bay of Plenty,176.0076,-37.7138,Western Bay of Plenty District,North Island,NZ
3177,Athenree,Bay of Plenty,175.9169,-37.4922,Western Bay of Plenty District,North Island,NZ
3178,Katikati,Bay of Plenty,175.8646,-37.5826,Western Bay of Plenty District,North Island,NZ
3182,Te Puke,Bay of Plenty,176.2896,-37.8464,Western Bay of Plenty District,North Island,NZ
3183,Upper Papamoa,Bay of Plenty,176.2666,-37.8104,Western Bay of Plenty District,North Island,NZ
3186,Ohinepanea,Bay of Plenty,176.4704,-37.8915,Western Bay of Plenty District,North Island,NZ
3187,Papamoa,Bay of Plenty,176.3135,-37.74,Tauranga City,North Island,NZ
3188,Ngawaro,Bay of Plenty,176.1919,-37.8957,Western Bay of Plenty District,North Island,NZ
3189,Paengaroa,Bay of Plenty,176.413,-37.8464,Western Bay of Plenty District,North Island,NZ
3191,Otangihaku,Bay of Plenty,176.9708,-38.0614,Whakatane District,North Island,NZ
3192,Kawerau,Bay of Plenty,176.7807,-38.1218,Kawerau District,North Island,NZ
3193,Edgecumbe,Bay of Plenty,176.8355,-37.963,Whakatane District,North Island,NZ
3194,Awakaponga,Bay of Plenty,176.7675,-37.9481,Western Bay of Plenty District,North Island,NZ
3196,Waimana,Bay of Plenty,177.1206,-38.2072,Whakatane District,North Island,NZ
3197,Toatoa,Bay of Plenty,177.4113,-38.172,Opotiki District,North Island,NZ
3198,Waimana,Bay of Plenty,177.1553,-38.1269,Opotiki District,North Island,NZ
3199,Omaio,Gisborne,177.8537,-37.8634,Gisborne District,North Island,NZ
3200,Te Rapa,Waikato,175.2474,-37.761,Hamilton City,North Island,NZ
3204,Hamilton Central,Waikato,175.2604,-37.7974,Hamilton,North Island,NZ
3206,Glenview,Waikato,175.2865,-37.8198,Hamilton,North Island,NZ
3210,Rototuna,Waikato,175.2707,-37.7462,Waikato,North Island,NZ
3214,Fairfield,Waikato,175.2985,-37.7708,Hamilton,North Island,NZ
3216,Hamilton East,Waikato,175.3088,-37.7961,Hamilton City,North Island,NZ
3218,Temple View,Waikato,175.2282,-37.8198,Hamilton City,North Island,NZ
3225,Raglan,Waikato,174.8709,-37.8109,Waikato District,North Island,NZ
3240,Hamilton West,Waikato,175.276,-37.7849,Hamilton City,North Island,NZ
3241,Te Rapa,Waikato,175.2475,-37.7571,Hamilton City,North Island,NZ
3242,Hamilton West,Waikato,175.2644,-37.7881,Hamilton City,North Island,NZ
3243,Frankton Junction,Waikato,175.2458,-37.7955,Hamilton City,North Island,NZ
3244,Hamilton,Waikato,175.2802,-37.7852,Hamilton City,North Island,NZ
3245,Melville,Waikato,175.2824,-37.8175,Hamilton City,North Island,NZ
3246,Melville,Waikato,175.2876,-37.8224,Hamilton City,North Island,NZ
3247,Hamilton East,Waikato,175.2944,-37.7914,Hamilton City,North Island,NZ
3248,Claudelands,Waikato,175.2799,-37.7514,Hamilton City,North Island,NZ
3249,Te Rapa,Waikato,175.253,-37.738,Hamilton City,North Island,NZ
3251,Hamilton East,Waikato,175.3157,-37.7985,Hamilton City,North Island,NZ
3252,Claudelands,Waikato,175.2934,-37.7723,Hamilton City,North Island,NZ
3253,Newstead,Waikato,175.3223,-37.8017,Hamilton City,North Island,NZ
3254,Newstead,Waikato,175.3261,-37.7899,Hamilton City,North Island,NZ
3255,Hamilton East,Waikato,175.3166,-37.7876,Hamilton City,North Island,NZ
3256,Claudelands,Waikato,175.2734,-37.729,Hamilton City,North Island,NZ
3257,Claudelands,Waikato,175.2534,-37.7651,Hamilton City,North Island,NZ
3260,Matangi,Waikato,175.395,-37.8043,Waikato District,North Island,NZ
3261,Whatawhata,Waikato,175.1535,-37.7974,Waikato District,North Island,NZ
3262,Horotiu,Waikato,175.19,-37.6941,Waikato District,North Island,NZ
3263,Te Kowhai,Waikato,175.1526,-37.7432,Waikato District,North Island,NZ
3264,Gordonton,Waikato,175.3041,-37.6696,Waikato District,North Island,NZ
3265,Raglan,Waikato,174.87,-37.8003,Waikato District,North Island,NZ
3266,Te Uku,Waikato,174.957,-37.8289,Waikato District,North Island,NZ
3281,Gordonton,Waikato,175.3075,-37.6905,Waikato District,North Island,NZ
3282,Rukuhia,Waikato,175.2852,-37.843,Waipa District,North Island,NZ
3283,Tamahere,Waikato,175.3865,-37.8514,Waikato District,North Island,NZ
3284,Eureka,Waikato,175.3961,-37.7576,Waikato District,North Island,NZ
3285,Aramiro,Waikato,175.0829,-37.905,Waikato District,North Island,NZ
3288,Te Kowhai,Waikato,175.174,-37.7355,Waikato District,North Island,NZ
3289,Whatawhata,Waikato,175.136,-37.7794,Waikato District,North Island,NZ
3290,Temple View,Waikato,175.1942,-37.8461,Hamilton City,North Island,NZ
3293,Waitetuna,Waikato,175.0743,-37.8177,Waikato District,North Island,NZ
3295,Te Uku,Waikato,174.9795,-37.8322,Waikato District,North Island,NZ
3296,Ruapuke,Waikato,174.8145,-37.8766,Waikato District,North Island,NZ
3297,Raglan,Waikato,174.8054,-37.8324,Waikato District,North Island,NZ
3300,Morrinsville,Waikato,175.5293,-37.652,Matamata-Piako District,North Island,NZ
3310,Waitoa,Waikato,175.6334,-37.6,Matamata-Piako District,North Island,NZ
3320,Te Aroha,Waikato,175.7098,-37.5391,Matamata-Piako District,North Island,NZ
3330,Taupo,Waikato,176.0588,-38.7037,Taupo,North Island,NZ
3332,Wairakei,Waikato,176.103,-38.6195,Taupo District,North Island,NZ
3334,Turangi,Waikato,175.8069,-39.0028,Taupo District,North Island,NZ
3340,Morrinsville,Waikato,175.5275,-37.6577,Matamata-Piako District,North Island,NZ
3341,Waitoa,Waikato,175.6281,-37.6015,Matamata-Piako District,North Island,NZ
3342,Te Aroha,Waikato,175.7124,-37.5429,Matamata-Piako District,North Island,NZ
3343,Te Aroha,Waikato,175.7039,-37.5523,Matamata-Piako District,North Island,NZ
3351,Taupo,Waikato,176.0718,-38.6868,Taupo District,North Island,NZ
3352,Taupo,Waikato,176.0709,-38.6828,Taupo District,North Island,NZ
3353,Turangi,Waikato,175.8087,-38.9887,Taupo District,North Island,NZ
3360,Tarawera,Waikato,176.5734,-39.0266,Taupo District,North Island,NZ
3371,Kiwitahi,Waikato,175.5598,-37.7378,Matamata-Piako District,North Island,NZ
3372,Motumaoho,Waikato,175.4797,-37.6875,Matamata-Piako District,North Island,NZ
3373,Tahuna,Waikato,175.4546,-37.4989,Matamata-Piako District,North Island,NZ
3374,Te Puninga,Waikato,175.5857,-37.5777,Matamata-Piako District,North Island,NZ
3375,Morrinsville,Waikato,175.445,-37.602,Waikato District,North Island,NZ
3377,Oruanui,Waikato,176.0015,-38.6226,Taupo District,North Island,NZ
3378,Waipahihi,Waikato,176.1355,-38.7041,Taupo District,North Island,NZ
3379,Rangitaiki,Hawke's Bay,176.3747,-38.887,Taupo District,North Island,NZ
3380,Waitoa,Waikato,175.6224,-37.5909,Matamata-Piako District,North Island,NZ
3381,Kuratau,Waikato,175.7096,-38.8184,Taupo District,North Island,NZ
3382,Turangi,Waikato,175.9471,-39.0284,Taupo District,North Island,NZ
3391,Manawaru,Waikato,175.7962,-37.6407,Matamata-Piako District,North Island,NZ
3392,Mangaiti,Waikato,175.6909,-37.5085,Matamata-Piako District,North Island,NZ
3393,Mangaiti,Waikato,175.6061,-37.4947,Matamata-Piako District,North Island,NZ
3400,Matamata,Waikato,175.7832,-37.8152,Matamata-Piako District,North Island,NZ
3401,Waharoa,Waikato,175.7491,-37.759,Matamata-Piako District,North Island,NZ
3410,Tirau,Waikato,175.7524,-37.9878,South Waikato District,North Island,NZ
3411,Putaruru,Waikato,175.7793,-38.0505,South Waikato District,North Island,NZ
3415,Arapuni,Waikato,175.6498,-38.0715,South Waikato District,North Island,NZ
3420,Tokoroa,Waikato,175.8685,-38.2229,South Waikato District,North Island,NZ
3421,Mangakino,Waikato,175.7737,-38.3696,Taupo District,North Island,NZ
3432,Leamington,Waikato,175.4781,-37.9096,Waipa District,North Island,NZ
3434,Cambridge,Waikato,175.469,-37.8866,Waipa,North Island,NZ
3440,Matamata,Waikato,175.7725,-37.8111,Matamata-Piako District,North Island,NZ
3441,Waharoa,Waikato,175.7525,-37.7591,Matamata-Piako District,North Island,NZ
3442,Tirau,Waikato,175.7568,-37.9782,South Waikato District,North Island,NZ
3443,Putaruru,Waikato,175.7788,-38.0516,South Waikato District,North Island,NZ
3444,Tokoroa,Waikato,175.8717,-38.2176,South Waikato District,North Island,NZ
3445,Mangakino,Waikato,175.774,-38.3704,Taupo District,North Island,NZ
3450,Leamington,Waikato,175.4719,-37.895,Waipa District,North Island,NZ
3451,Hautapu,Waikato,175.4531,-37.8605,Waipa District,North Island,NZ
3471,Okauia,Waikato,175.8421,-37.7686,Matamata-Piako District,North Island,NZ
3472,Hinuera,Waikato,175.6993,-37.8526,Matamata-Piako District,North Island,NZ
3473,Kaimai,Waikato,175.8962,-37.8507,Matamata-Piako District,North Island,NZ
3474,Waharoa,Waikato,175.7514,-37.7272,Matamata-Piako District,North Island,NZ
3475,Walton,Waikato,175.6598,-37.7656,Matamata-Piako District,North Island,NZ
3481,Te Waotu,Waikato,175.6938,-38.1162,South Waikato District,North Island,NZ
3482,Ngatira,Waikato,175.8195,-38.1275,South Waikato District,North Island,NZ
3483,Putaruru,Waikato,175.8289,-38.0474,South Waikato District,North Island,NZ
3484,Tirau,Waikato,175.7208,-37.9592,Matamata-Piako District,North Island,NZ
3485,Okoroire,Waikato,175.8676,-37.9758,Matamata-Piako District,North Island,NZ
3491,Kinleith,Waikato,175.9126,-38.2644,South Waikato District,North Island,NZ
3492,Mangakino,Waikato,175.696,-38.5067,Otorohanga District,North Island,NZ
3493,Bruntwood,Waikato,175.4448,-37.8344,Waikato District,North Island,NZ
3494,Pukeatua,Waikato,175.5804,-37.9944,Waipa District,North Island,NZ
3495,Leamington,Waikato,175.4494,-37.9615,Waipa District,North Island,NZ
3496,Whitehall,Waikato,175.5666,-37.8541,Matamata-Piako District,North Island,NZ
3500,Thames,Waikato,175.5456,-37.1355,Thames-Coromandel District,North Island,NZ
3503,Ngatea,Waikato,175.4893,-37.2735,Hauraki District,North Island,NZ
3506,Coromandel,Waikato,175.6601,-36.6993,Thames-Coromandel,North Island,NZ
3508,Tairua,Waikato,175.848,-36.9977,Thames-Coromandel District,North Island,NZ
3510,Whitianga,Waikato,175.6913,-36.817,Thames-Coromandel District,North Island,NZ
3540,Thames,Waikato,175.542,-37.139,Thames-Coromandel District,North Island,NZ
3541,Ngatea,Waikato,175.4971,-37.2763,Hauraki District,North Island,NZ
3542,Whitianga,Waikato,175.7045,-36.8358,Thames-Coromandel District,North Island,NZ
3543,Coromandel,Waikato,175.4984,-36.7586,Thames-Coromandel District,North Island,NZ
3544,Tairua,Waikato,175.8482,-37.002,Thames-Coromandel District,North Island,NZ
3545,Turua,Waikato,175.5664,-37.2378,Hauraki District,North Island,NZ
3546,Pauanui,Waikato,175.8587,-37.0206,Thames-Coromandel District,North Island,NZ
3547,Colville,Waikato,175.4767,-36.6344,Thames-Coromandel District,North Island,NZ
3574,Turua,Waikato,175.5535,-37.2269,Hauraki District,North Island,NZ
3575,Tapu,Waikato,175.4922,-36.9856,Thames-Coromandel District,North Island,NZ
3576,Waitakaruru,Waikato,175.3863,-37.2732,Hauraki District,North Island,NZ
3577,Parawai,Waikato,175.6008,-37.131,Thames-Coromandel District,North Island,NZ
3578,Nevesville,Waikato,175.6659,-37.1958,Thames-Coromandel District,North Island,NZ
3579,Hikuai,Waikato,175.8125,-37.0865,Thames-Coromandel District,North Island,NZ
3581,Ahimia,Waikato,175.4844,-36.8134,Thames-Coromandel District,North Island,NZ
3582,Te Rerenga,Waikato,175.6141,-36.7533,Thames-Coromandel District,North Island,NZ
3583,Kennedys Bay,Waikato,175.5537,-36.6805,Thames-Coromandel District,North Island,NZ
3584,Colville,Waikato,175.4532,-36.6061,Area Outside Territorial Authority,North Island,NZ
3591,Coroglen,Waikato,175.7144,-36.8959,Thames-Coromandel District,North Island,NZ
3592,Coroglen,Waikato,175.6572,-36.9317,Thames-Coromandel District,North Island,NZ
3597,Ngatea,Waikato,175.4673,-37.2926,Hauraki District,North Island,NZ
3600,Paeroa,Waikato,175.6712,-37.3735,Hauraki District,North Island,NZ
3610,Waihi,Waikato,175.8446,-37.3865,Hauraki District,North Island,NZ
3611,Waihi Beach,Bay of Plenty,175.9432,-37.4039,Western Bay of Plenty District,North Island,NZ
3620,Whangamata,Waikato,175.869,-37.1974,Thames-Coromandel District,North Island,NZ
3640,Paeroa,Waikato,175.671,-37.381,Hauraki District,North Island,NZ
3641,Waihi,Waikato,175.8413,-37.3923,Hauraki District,North Island,NZ
3642,Waihi Beach,Bay of Plenty,175.9424,-37.4117,Western Bay of Plenty District,North Island,NZ
3643,Whangamata,Waikato,175.8715,-37.2071,Thames-Coromandel District,North Island,NZ
3671,Netherton,Waikato,175.585,-37.3374,Hauraki District,North Island,NZ
3672,Netherton,Waikato,175.6157,-37.3715,Hauraki District,North Island,NZ
3673,Tirohia,Waikato,175.6648,-37.4191,Matamata-Piako District,North Island,NZ
3674,Komata,Waikato,175.7408,-37.3376,Hauraki District,North Island,NZ
3681,Waihi,Waikato,175.8798,-37.3714,Hauraki District,North Island,NZ
3682,Waihi,Waikato,175.8178,-37.4057,Hauraki District,North Island,NZ
3691,Whangamata,Waikato,175.8231,-37.1833,Hauraki District,North Island,NZ
3700,Huntly,Waikato,175.1583,-37.5596,Waikato,North Island,NZ
3710,Te Kauwhata,Waikato,175.1466,-37.4039,Waikato District,North Island,NZ
3720,Ngaruawahia,Waikato,175.1522,-37.6691,Waikato District,North Island,NZ
3721,Taupiri,Waikato,175.1894,-37.6191,Waikato District,North Island,NZ
3740,Starrtown,Waikato,175.1589,-37.558,Waikato District,North Island,NZ
3741,Te Kauwhata,Waikato,175.144,-37.4039,Waikato District,North Island,NZ
3742,Ngaruawahia,Waikato,175.1482,-37.6659,Waikato District,North Island,NZ
3771,Pukekapia,Waikato,175.1096,-37.5358,Waikato District,North Island,NZ
3772,Ruawaro,Waikato,175.0108,-37.5172,Waikato District,North Island,NZ
3781,Waerenga,Waikato,175.2623,-37.3573,Waikato District,North Island,NZ
3782,Whangamarino,Waikato,175.1326,-37.3589,Waikato District,North Island,NZ
3784,Waiterimu,Waikato,175.2925,-37.4617,Matamata-Piako District,North Island,NZ
3791,Komakorau,Waikato,175.2398,-37.6355,Waikato District,North Island,NZ
3792,Orini,Waikato,175.2696,-37.5777,Waikato District,North Island,NZ
3793,Waingaro,Waikato,174.9803,-37.7088,Waikato District,North Island,NZ
3794,Pepepe,Waikato,174.9202,-37.6266,Waikato District,North Island,NZ
3800,Te Awamutu,Waikato,175.3305,-38.0195,Waipa District,North Island,NZ
3802,Pirongia,Waikato,175.2051,-37.9914,Waipa District,North Island,NZ
3803,Ohaupo,Waikato,175.3066,-37.9178,Waipa District,North Island,NZ
3840,Te Awamutu,Waikato,175.3237,-38.0104,Waipa District,North Island,NZ
3841,Kihikihi,Waikato,175.3454,-38.0377,Waipa District,North Island,NZ
3843,Kawhia,Waikato,174.8229,-38.0639,Otorohanga District,North Island,NZ
3872,Wharepuhunga,Waikato,175.4515,-38.0733,Waipa District,North Island,NZ
3873,Te Kawa,Waikato,175.3534,-38.138,Waipa District,North Island,NZ
3874,Matapara,Waikato,175.5108,-38.2716,Otorohanga District,North Island,NZ
3875,Te Mawhai,Waikato,175.29,-38.0405,Waipa District,North Island,NZ
3876,Pirongia,Waikato,175.1763,-38.0036,Waipa District,North Island,NZ
3877,Matapara,Waikato,175.538,-38.1874,Waipa District,North Island,NZ
3878,Hauturu,Waikato,174.9754,-38.0811,Otorohanga District,North Island,NZ
3879,Kihikihi,Waikato,175.4174,-38.0134,Waipa District,North Island,NZ
3880,Pukeatua,Waikato,175.5796,-38.1016,Waipa District,North Island,NZ
3881,Ohaupo,Waikato,175.3486,-37.9081,Waipa District,North Island,NZ
3882,Rukuhia,Waikato,175.2463,-37.8832,Waipa District,North Island,NZ
3883,Ngaroto,Waikato,175.2812,-37.9539,Waipa District,North Island,NZ
3885,Oparau,Waikato,174.9774,-38.0142,Otorohanga District,North Island,NZ
3886,Owhiro,Waikato,174.9098,-38.153,Otorohanga District,North Island,NZ
3889,Kawhia,Waikato,174.8314,-38.0416,Otorohanga District,North Island,NZ
3894,Te Papatapu,Waikato,174.8386,-37.9576,Waikato District,North Island,NZ
3895,Moerangi,Waikato,174.9124,-37.9508,Waikato District,North Island,NZ
3900,Otorohanga,Waikato,175.223,-38.1807,Otorohanga District,North Island,NZ
3910,Te Kuiti,Waikato,175.1654,-38.3353,Waitomo District,North Island,NZ
3912,Piopio,Waikato,175.0126,-38.4671,Waitomo District,North Island,NZ
3920,Taumarunui,Manawatu-Wanganui,175.2729,-38.8765,Ruapehu District,North Island,NZ
3924,Manunui,Manawatu-Wanganui,175.3202,-38.8965,Ruapehu District,North Island,NZ
3926,Ohura,Manawatu-Wanganui,174.9669,-38.8467,Ruapehu District,North Island,NZ
3940,Otorohanga,Waikato,175.2115,-38.1864,Otorohanga District,North Island,NZ
3941,Te Kuiti,Waikato,175.1656,-38.3344,Waitomo District,North Island,NZ
3942,Piopio,Waikato,175.016,-38.4665,Waitomo District,North Island,NZ
3943,Hangatiki,Waikato,175.1787,-38.2521,Waitomo District,North Island,NZ
3944,Benneydale,Waikato,175.3638,-38.5204,Waitomo District,North Island,NZ
3945,Mahoenui,Waikato,174.8403,-38.5784,Waitomo District,North Island,NZ
3946,Taumarunui,Manawatu-Wanganui,175.2639,-38.8844,Ruapehu District,North Island,NZ
3947,Ohura,Manawatu-Wanganui,174.9827,-38.8418,Ruapehu District,North Island,NZ
3948,National Park,Manawatu-Wanganui,175.4022,-39.177,Ruapehu District,North Island,NZ
3949,Tongariro,Manawatu-Wanganui,175.6038,-39.046,Ruapehu District,North Island,NZ
3970,Wairere Falls,Waikato,174.971,-38.5064,Waitomo District,North Island,NZ
3971,Waitanguru,Waikato,174.9066,-38.402,Waitomo District,North Island,NZ
3972,Maihiihi,Waikato,175.3551,-38.2227,Otorohanga District,North Island,NZ
3973,Honikiwi,Waikato,175.1012,-38.1305,Otorohanga District,North Island,NZ
3974,Te Kawa,Waikato,175.2717,-38.1444,Otorohanga District,North Island,NZ
3975,Maihiihi,Waikato,175.3482,-38.2977,Otorohanga District,North Island,NZ
3976,Hangatiki,Waikato,175.2194,-38.2536,Otorohanga District,North Island,NZ
3977,Hangatiki,Waikato,175.1494,-38.2342,Waitomo District,North Island,NZ
3978,Mahoenui,Waikato,174.8526,-38.5532,Waitomo District,North Island,NZ
3979,Waitewhenua,Manawatu-Wanganui,174.9724,-38.6529,Ruapehu District,North Island,NZ
3980,Tatu,Manawatu-Wanganui,174.9306,-38.8981,Stratford District,North Island,NZ
3981,Arapae,Waikato,175.1026,-38.4221,Waitomo District,North Island,NZ
3982,Puketutu,Waikato,175.2779,-38.3574,Waitomo District,North Island,NZ
3983,Kopaki,Waikato,175.2096,-38.4905,Waitomo District,North Island,NZ
3985,Waitanguru,Waikato,174.901,-38.4444,Waitomo District,North Island,NZ
3986,Te Kuiti,Waikato,175.1961,-38.2923,Otorohanga District,North Island,NZ
3987,Benneydale,Waikato,175.512,-38.4993,Waitomo District,North Island,NZ
3988,Owhiro,Waikato,174.8979,-38.2017,Waitomo District,North Island,NZ
3989,Oio,Manawatu-Wanganui,175.4805,-39.0775,Ruapehu District,North Island,NZ
3990,Upper Ruatiti,Manawatu-Wanganui,175.2283,-39.1517,Ruapehu District,North Island,NZ
3991,Aukopae,Manawatu-Wanganui,175.1103,-38.9138,Ruapehu District,North Island,NZ
3992,Hikumutu,Manawatu-Wanganui,175.2684,-38.9432,Ruapehu District,North Island,NZ
3993,Kirikau,Manawatu-Wanganui,175.1751,-39.0204,Ruapehu District,North Island,NZ
3994,Ngapuke,Manawatu-Wanganui,175.4107,-38.8637,Ruapehu District,North Island,NZ
3995,Matiere,Manawatu-Wanganui,175.0987,-38.7469,Ruapehu District,North Island,NZ
3996,Okahukura,Manawatu-Wanganui,175.2329,-38.8026,Ruapehu District,North Island,NZ
3997,Ongarue,Manawatu-Wanganui,175.3731,-38.7362,Ruapehu District,North Island,NZ
3998,Waimiha,Manawatu-Wanganui,175.3978,-38.6202,Ruapehu District,North Island,NZ
4010,Gisborne,Gisborne,178.0286,-38.6673,Gisborne,North Island,NZ
4022,Te Karaka,Gisborne,177.866,-38.4678,Gisborne District,North Island,NZ
4032,Ruatoria,Gisborne,178.32,-37.8926,Gisborne District,North Island,NZ
4040,Kaiti,Gisborne,178.025,-38.6641,Gisborne District,North Island,NZ
4041,Tamarau,Gisborne,178.0449,-38.6751,Gisborne District,North Island,NZ
4042,Te Karaka,Gisborne,177.8638,-38.4695,Gisborne District,North Island,NZ
4043,Ruatoria,Gisborne,178.3191,-37.8902,Gisborne District,North Island,NZ
4044,Tiniroto,Gisborne,177.5665,-38.7742,Gisborne District,North Island,NZ
4045,Patutahi,Gisborne,177.8904,-38.624,Gisborne District,North Island,NZ
4046,Tolaga Bay,Gisborne,178.2971,-38.3727,Gisborne District,North Island,NZ
4047,Tokomaru,Gisborne,178.315,-38.1303,Gisborne District,North Island,NZ
4048,Te Puia,Gisborne,178.3065,-38.0558,Gisborne District,North Island,NZ
4049,Rangitukia,Gisborne,178.4107,-37.7963,Gisborne District,North Island,NZ
4050,Te Araroa,Gisborne,178.3694,-37.6336,Gisborne District,North Island,NZ
4051,Matawai,Gisborne,177.5345,-38.3576,Gisborne District,North Island,NZ
4052,Motu,Gisborne,177.548,-38.2569,Gisborne District,North Island,NZ
4071,Waerengaahika,Gisborne,177.9556,-38.576,Gisborne District,North Island,NZ
4072,Pehiri,Gisborne,177.623,-38.66,Gisborne District,North Island,NZ
4073,Whangara,Gisborne,178.1478,-38.5389,Gisborne District,North Island,NZ
4075,Rakauroa,Gisborne,177.4494,-38.426,Gisborne District,North Island,NZ
4077,Tolaga Bay,Gisborne,178.1521,-38.2809,Gisborne District,North Island,NZ
4078,Tiniroto,Gisborne,177.6647,-38.8266,Gisborne District,North Island,NZ
4079,Tokomaru,Gisborne,178.1236,-38.1207,Gisborne District,North Island,NZ
4081,Waitakaro,Gisborne,178.2583,-37.9512,Gisborne District,North Island,NZ
4082,Ruatoria,Gisborne,178.3902,-37.863,Gisborne District,North Island,NZ
4083,Pakihiroa,Gisborne,178.165,-37.8432,Gisborne District,North Island,NZ
4086,Whakaangiangi,Gisborne,178.355,-37.7749,Gisborne District,North Island,NZ
4087,Te Araroa,Gisborne,178.3229,-37.6653,Gisborne District,North Island,NZ
4091,Ahititi,Gisborne,177.9638,-38.365,Gisborne District,North Island,NZ
4092,Otoko,Gisborne,177.6316,-38.3389,Gisborne District,North Island,NZ
4093,Te Karaka,Gisborne,177.8868,-38.4817,Gisborne District,North Island,NZ
4094,Whatatutu,Gisborne,177.8006,-38.3066,Gisborne District,North Island,NZ
4102,Clive,Hawke's Bay,176.9451,-39.613,Hastings,North Island,NZ
4104,Bay View,Hawke's Bay,176.8765,-39.4185,Napier,North Island,NZ
4108,Wairoa,Hawke's Bay,177.4054,-39.0278,Wairoa,North Island,NZ
4110,Napier,Hawke's Bay,176.8799,-39.498,Napier,North Island,NZ
4112,Greenmeadows,Hawke's Bay,176.8511,-39.5268,Napier,North Island,NZ
4120,Hastings,Hawke's Bay,176.8137,-39.6279,Hastings District,North Island,NZ
4122,Hastings Central,Hawke's Bay,176.8502,-39.6462,Hastings,North Island,NZ
4130,Havelock North,Hawke's Bay,176.8867,-39.6806,Hastings District,North Island,NZ
4140,Onekawa,Hawke's Bay,176.9182,-39.4909,Napier City,North Island,NZ
4141,Taradale,Hawke's Bay,176.8487,-39.5357,Napier City,North Island,NZ
4142,Pirimai,Hawke's Bay,176.8821,-39.5073,Napier City,North Island,NZ
4143,Napier South,Hawke's Bay,176.9031,-39.5002,Napier City,North Island,NZ
4144,Ahuriri,Hawke's Bay,176.8981,-39.4809,Napier City,North Island,NZ
4145,Greenmeadows,Hawke's Bay,176.8614,-39.5264,Napier City,North Island,NZ
4146,Pirimai,Hawke's Bay,176.8868,-39.5081,Napier City,North Island,NZ
4147,Tamatea,Hawke's Bay,176.8696,-39.5106,Napier City,North Island,NZ
4148,Clive,Hawke's Bay,176.9148,-39.5839,Hastings District,North Island,NZ
4149,Petane,Hawke's Bay,176.8665,-39.419,Napier City,North Island,NZ
4153,Saint Leonards,Hawke's Bay,176.8314,-39.6312,Hastings District,North Island,NZ
4154,Flaxmere,Hawke's Bay,176.7866,-39.6254,Hastings District,North Island,NZ
4155,Parkvale,Hawke's Bay,176.8498,-39.6284,Hastings District,North Island,NZ
4156,Parkvale,Hawke's Bay,176.8425,-39.6408,Hastings District,North Island,NZ
4157,Havelock North,Hawke's Bay,176.8783,-39.6694,Hastings District,North Island,NZ
4158,Parkvale,Hawke's Bay,176.8466,-39.6396,Hastings District,North Island,NZ
4159,Mayfair,Hawke's Bay,176.8527,-39.6378,Hastings District,North Island,NZ
4160,Wairoa,Hawke's Bay,177.419,-39.0333,Wairoa District,North Island,NZ
4161,Pahowai,Hawke's Bay,176.8928,-39.6038,Hastings District,North Island,NZ
4162,Tutira,Hawke's Bay,176.8815,-39.204,Hastings District,North Island,NZ
4163,Frasertown,Hawke's Bay,177.4102,-38.9666,Wairoa District,North Island,NZ
4164,Tuai,Hawke's Bay,177.1439,-38.8194,Wairoa District,North Island,NZ
4165,Nuhaka,Hawke's Bay,177.7403,-39.0425,Wairoa District,North Island,NZ
4166,Mahia,Hawke's Bay,177.9185,-39.0869,Wairoa District,North Island,NZ
4171,Blackburn,Hawke's Bay,176.292,-39.8865,Hastings District,North Island,NZ
4172,Te Awanga,Hawke's Bay,176.9405,-39.6588,Hastings District,North Island,NZ
4174,Te Hauke,Hawke's Bay,176.6463,-39.7357,Hastings District,North Island,NZ
4175,Flaxmere,Hawke's Bay,176.7618,-39.6232,Hastings District,North Island,NZ
4178,Poukawa,Hawke's Bay,176.7544,-39.772,Central Hawke's Bay District,North Island,NZ
4179,Puketitiri,Hawke's Bay,176.3562,-39.3382,Hastings District,North Island,NZ
4181,Tutira,Hawke's Bay,176.9144,-39.2293,Hastings District,North Island,NZ
4182,Te Pohue,Hawke's Bay,176.6716,-39.1869,Hastings District,North Island,NZ
4183,Taradale,Hawke's Bay,176.8176,-39.5439,Napier City,North Island,NZ
4184,Puketitiri,Hawke's Bay,176.5916,-39.3052,Hastings District,North Island,NZ
4186,Patoka,Hawke's Bay,176.631,-39.3916,Hastings District,North Island,NZ
4188,Kotemaori,Hawke's Bay,177.0019,-39.0869,Hastings District,North Island,NZ
4189,Kotemaori,Hawke's Bay,176.9956,-38.9813,Wairoa District,North Island,NZ
4191,Raupunga,Hawke's Bay,177.2238,-38.9822,Wairoa District,North Island,NZ
4193,Wairoa,Hawke's Bay,177.343,-39.0076,Wairoa District,North Island,NZ
4195,Tuai,Hawke's Bay,177.2002,-38.7742,Wairoa District,North Island,NZ
4196,Opoiti,Hawke's Bay,177.5408,-38.9559,Wairoa District,North Island,NZ
4197,Raupunga,Hawke's Bay,177.2422,-39.063,Wairoa District,North Island,NZ
4198,Waitaniwha,Hawke's Bay,177.8021,-39.0721,Wairoa District,North Island,NZ
4200,Waipukurau,Hawke's Bay,176.5591,-39.9973,Central Hawke's Bay District,North Island,NZ
4202,Otane,Hawke's Bay,176.6275,-39.898,Central Hawke's Bay District,North Island,NZ
4203,Takapau,Hawke's Bay,176.3499,-40.0222,Central Hawke's Bay District,North Island,NZ
4210,Waipawa,Hawke's Bay,176.5855,-39.9289,Central Hawke's Bay District,North Island,NZ
4240,Waipawa,Hawke's Bay,176.5868,-39.9442,Central Hawke's Bay District,North Island,NZ
4241,Otane,Hawke's Bay,176.6287,-39.8966,Central Hawke's Bay District,North Island,NZ
4242,Waipukurau,Hawke's Bay,176.5563,-39.9954,Central Hawke's Bay District,North Island,NZ
4243,Takapau,Hawke's Bay,176.3484,-40.0282,Central Hawke's Bay District,North Island,NZ
4244,Onga Onga,Hawke's Bay,176.4185,-39.913,Central Hawke's Bay District,North Island,NZ
4245,Porangahau,Hawke's Bay,176.6101,-40.3024,Central Hawke's Bay District,North Island,NZ
4271,Patangata,Hawke's Bay,176.7528,-40.0457,Central Hawke's Bay District,North Island,NZ
4272,Ruataniwha,Hawke's Bay,176.5078,-39.9184,Central Hawke's Bay District,North Island,NZ
4273,Argyll East,Hawke's Bay,176.5055,-39.8672,Central Hawke's Bay District,North Island,NZ
4274,Tikokino,Hawke's Bay,176.3925,-39.7684,Central Hawke's Bay District,North Island,NZ
4275,Waipawa,Hawke's Bay,176.5872,-39.9644,Central Hawke's Bay District,North Island,NZ
4276,Pukehou,Hawke's Bay,176.5974,-39.8517,Hastings District,North Island,NZ
4277,Patangata,Hawke's Bay,176.7075,-39.8817,Central Hawke's Bay District,North Island,NZ
4278,Blackburn,Hawke's Bay,176.3054,-39.8701,Central Hawke's Bay District,North Island,NZ
4279,Blackburn,Hawke's Bay,176.332,-39.8275,Central Hawke's Bay District,North Island,NZ
4281,Maharakeke,Hawke's Bay,176.4391,-40.0431,Central Hawke's Bay District,North Island,NZ
4282,Wanstead,Hawke's Bay,176.4449,-40.1206,Central Hawke's Bay District,North Island,NZ
4283,Ruataniwha,Hawke's Bay,176.4761,-39.9519,Central Hawke's Bay District,North Island,NZ
4284,Wallingford,Hawke's Bay,176.6552,-40.1509,Central Hawke's Bay District,North Island,NZ
4285,Waipukurau,Hawke's Bay,176.623,-40.007,Central Hawke's Bay District,North Island,NZ
4286,Ashley Clinton,Hawke's Bay,176.2699,-39.9488,Central Hawke's Bay District,North Island,NZ
4287,Norsewood,Hawke's Bay,176.2563,-40.0526,Central Hawke's Bay District,North Island,NZ
4288,Maharakeke,Hawke's Bay,176.402,-39.9737,Central Hawke's Bay District,North Island,NZ
4291,Porangahau,Hawke's Bay,176.5164,-40.3086,Central Hawke's Bay District,North Island,NZ
4292,Porangahau,Hawke's Bay,176.5533,-40.3623,Central Hawke's Bay District,North Island,NZ
4293,Porangahau,Hawke's Bay,176.6208,-40.3501,Central Hawke's Bay District,North Island,NZ
4294,Waimarama,Hawke's Bay,176.9602,-39.7714,Hastings District,North Island,NZ
4295,Elsthorpe,Hawke's Bay,176.8721,-39.8729,Central Hawke's Bay District,North Island,NZ
4310,New Plymouth Central,Taranaki,174.0554,-39.0724,New Plymouth,North Island,NZ
4312,Fitzroy,Taranaki,174.1192,-39.052,New Plymouth District,North Island,NZ
4314,Oakura,Taranaki,173.9504,-39.115,New Plymouth District,North Island,NZ
4320,Waitara,Taranaki,174.2367,-38.9976,New Plymouth District,North Island,NZ
4322,Eltham,Taranaki,174.2996,-39.429,South Taranaki District,North Island,NZ
4330,Inglewood,Taranaki,174.2029,-39.157,New Plymouth District,North Island,NZ
4332,Stratford,Taranaki,174.2802,-39.3378,Stratford District,North Island,NZ
4335,Okato,Taranaki,173.8777,-39.1936,New Plymouth District,North Island,NZ
4340,Brooklands,Taranaki,174.0682,-39.0586,New Plymouth District,North Island,NZ
4341,Fitzroy,Taranaki,174.1017,-39.05,New Plymouth District,North Island,NZ
4342,New Plymouth,Taranaki,174.0741,-39.0572,New Plymouth District,North Island,NZ
4343,Frankleigh Park,Taranaki,174.0628,-39.0708,New Plymouth District,North Island,NZ
4344,Moturoa,Taranaki,174.0452,-39.0628,New Plymouth District,North Island,NZ
4345,Oakura,Taranaki,173.9574,-39.1156,New Plymouth District,North Island,NZ
4346,Waitara,Taranaki,174.2361,-39.0021,New Plymouth District,North Island,NZ
4347,Inglewood,Taranaki,174.2072,-39.1568,New Plymouth District,North Island,NZ
4348,Okato,Taranaki,173.8794,-39.191,New Plymouth District,North Island,NZ
4349,Urenui,Taranaki,174.3907,-38.9979,New Plymouth District,North Island,NZ
4350,Mokau,Waikato,174.621,-38.6991,Waitomo District,North Island,NZ
4351,Bell Block,Taranaki,174.1432,-39.0355,New Plymouth District,North Island,NZ
4352,Stratford,Taranaki,174.283,-39.3393,Stratford District,North Island,NZ
4353,Eltham,Taranaki,174.2994,-39.4298,South Taranaki District,North Island,NZ
4360,Merrilands,Taranaki,174.1028,-39.0666,New Plymouth District,North Island,NZ
4371,Mangorei,Taranaki,174.0832,-39.1487,New Plymouth District,North Island,NZ
4372,Hillsborough,Taranaki,174.1506,-39.0917,New Plymouth District,North Island,NZ
4373,Lepperton,Taranaki,174.2197,-39.0487,New Plymouth District,North Island,NZ
4374,Oakura,Taranaki,173.9507,-39.1464,New Plymouth District,North Island,NZ
4375,Okoki,Taranaki,174.5077,-39.0529,New Plymouth District,North Island,NZ
4376,Awakino,Waikato,174.7513,-38.6827,Waitomo District,North Island,NZ
4377,Uruti,Taranaki,174.4819,-38.9421,New Plymouth District,North Island,NZ
4378,Okau,Taranaki,174.6847,-38.9105,New Plymouth District,North Island,NZ
4379,Uruti,Taranaki,174.5497,-38.9415,New Plymouth District,North Island,NZ
4381,Okato,Taranaki,173.8774,-39.2227,New Plymouth District,North Island,NZ
4382,Sentry Hill,Taranaki,174.2171,-39.0139,New Plymouth District,North Island,NZ
4383,Tikorangi,Taranaki,174.3067,-39.0507,New Plymouth District,North Island,NZ
4386,Kaimiro,Taranaki,174.1435,-39.2077,New Plymouth District,North Island,NZ
4387,Tarata,Taranaki,174.3796,-39.155,Stratford District,North Island,NZ
4388,Te Tawa,Taranaki,174.2446,-39.179,New Plymouth District,North Island,NZ
4389,Waiongona,Taranaki,174.2335,-39.1194,New Plymouth District,North Island,NZ
4390,Ratapiko,Taranaki,174.3078,-39.207,Stratford District,North Island,NZ
4391,Dawson Falls,Taranaki,174.1399,-39.3216,South Taranaki District,North Island,NZ
4392,Puniwhakau,Manawatu-Wanganui,174.7213,-39.3023,Stratford District,North Island,NZ
4393,Huinga,Taranaki,174.3671,-39.3746,Stratford District,North Island,NZ
4394,Tuna,Taranaki,174.2974,-39.2797,New Plymouth District,North Island,NZ
4395,Matau,Taranaki,174.6005,-39.1747,Stratford District,North Island,NZ
4396,Tahora,Manawatu-Wanganui,174.7836,-39.0278,Stratford District,North Island,NZ
4397,Tahora,Taranaki,174.7784,-38.973,Stratford District,North Island,NZ
4398,Eltham,Taranaki,174.3421,-39.4578,South Taranaki District,North Island,NZ
4399,Moeroa,Taranaki,174.6351,-39.4309,South Taranaki District,North Island,NZ
4410,Palmerston North,Manawatu-Wanganui,175.6288,-40.3691,Palmerston North,North Island,NZ
4412,Highbury,Manawatu-Wanganui,175.5885,-40.3658,Manawatu,North Island,NZ
4414,Roslyn,Manawatu-Wanganui,175.63,-40.3326,Palmerston North,North Island,NZ
4440,Hokowhitu,Manawatu-Wanganui,175.6107,-40.3581,Palmerston North City,North Island,NZ
4441,Terrace End,Manawatu-Wanganui,175.6277,-40.3476,Palmerston North City,North Island,NZ
4442,Takaro,Manawatu-Wanganui,175.5952,-40.3454,Palmerston North City,North Island,NZ
4443,West End,Manawatu-Wanganui,175.5984,-40.3622,Palmerston North City,North Island,NZ
4444,Terrace End,Manawatu-Wanganui,175.6123,-40.3555,Palmerston North City,North Island,NZ
4445,Awapuni,Manawatu-Wanganui,175.593,-40.3726,Palmerston North City,North Island,NZ
4446,Hokowhitu,Manawatu-Wanganui,175.6338,-40.3632,Palmerston North City,North Island,NZ
4448,Summerhill,Manawatu-Wanganui,175.6393,-40.3874,Palmerston North City,North Island,NZ
4470,Ashhurst,Manawatu-Wanganui,175.7028,-40.2905,Manawatu District,North Island,NZ
4471,Aokautere,Manawatu-Wanganui,175.7135,-40.3626,Tararua District,North Island,NZ
4473,Carnarvon,Manawatu-Wanganui,175.3396,-40.3156,Manawatu District,North Island,NZ
4474,Tokomaru,Manawatu-Wanganui,175.5456,-40.5035,Horowhenua District,North Island,NZ
4475,Kairanga,Manawatu-Wanganui,175.5202,-40.3307,Palmerston North City,North Island,NZ
4476,Rongotea,Manawatu-Wanganui,175.4393,-40.2862,Manawatu District,North Island,NZ
4477,Mangawhata,Manawatu-Wanganui,175.4478,-40.3989,Horowhenua District,North Island,NZ
4478,Milson,Manawatu-Wanganui,175.5922,-40.2979,Manawatu District,North Island,NZ
4479,Sanson,Manawatu-Wanganui,175.4358,-40.2317,Manawatu District,North Island,NZ
4481,Bunnythorpe,Manawatu-Wanganui,175.6657,-40.2755,Manawatu District,North Island,NZ
4500,Wanganui Central,Manawatu-Wanganui,175.0546,-39.9146,Whanganui,North Island,NZ
4501,Gonville,Manawatu-Wanganui,175.0133,-39.9401,Whanganui District,North Island,NZ
4510,Waverley,Taranaki,174.6317,-39.7628,South Taranaki District,North Island,NZ
4520,Patea,Taranaki,174.4695,-39.7584,South Taranaki,North Island,NZ
4540,Wanganui,Taranaki,175.0532,-39.9344,South Taranaki District,North Island,NZ
4541,Wanganui,Manawatu-Wanganui,175.0466,-39.9295,Whanganui District,North Island,NZ
4542,Wanganui East,Manawatu-Wanganui,175.0533,-39.9096,Whanganui District,North Island,NZ
4543,Gonville,Manawatu-Wanganui,175.0226,-39.9428,Whanganui District,North Island,NZ
4544,Waverley,Taranaki,174.6343,-39.7637,South Taranaki District,North Island,NZ
4545,White Tank,Taranaki,174.4737,-39.756,South Taranaki District,North Island,NZ
4547,Turakina South,Manawatu-Wanganui,175.2138,-40.0467,Rangitikei District,North Island,NZ
4548,Ratana,Manawatu-Wanganui,175.1756,-40.0394,Rangitikei District,North Island,NZ
4549,Waitotara,Taranaki,174.734,-39.8069,South Taranaki District,North Island,NZ
4571,Brunswick,Manawatu-Wanganui,175.0206,-39.8193,Whanganui District,North Island,NZ
4572,Wiritoa,Manawatu-Wanganui,175.1162,-39.9823,Whanganui District,North Island,NZ
4573,Kakatahi,Manawatu-Wanganui,175.2513,-39.674,Ruapehu District,North Island,NZ
4574,Mowhanau,Manawatu-Wanganui,174.8924,-39.8531,Whanganui District,North Island,NZ
4575,Upokonui,Manawatu-Wanganui,175.1865,-39.7918,Whanganui District,North Island,NZ
4576,Matahiwi,Manawatu-Wanganui,175.1175,-39.6251,Ruapehu District,North Island,NZ
4577,Kauangaroa,Manawatu-Wanganui,175.3413,-39.8951,Whanganui District,North Island,NZ
4578,Ahuiti,Taranaki,175.0021,-39.6577,South Taranaki District,North Island,NZ
4581,Turakina,Manawatu-Wanganui,175.2327,-40.0084,Rangitikei District,North Island,NZ
4582,Okoia,Manawatu-Wanganui,175.1679,-39.9118,Whanganui District,North Island,NZ
4584,Whakaihuwaka,Manawatu-Wanganui,175.0626,-39.7719,Whanganui District,North Island,NZ
4585,Kakatahi,Manawatu-Wanganui,175.4148,-39.599,Whanganui District,North Island,NZ
4586,Kakatahi,Manawatu-Wanganui,175.4134,-39.7307,Whanganui District,North Island,NZ
4587,Nukumaru,Manawatu-Wanganui,174.8084,-39.8064,Whanganui District,North Island,NZ
4588,Tawhiwhi,Taranaki,174.8503,-39.6228,South Taranaki District,North Island,NZ
4591,Nukuhau,Taranaki,174.6316,-39.6418,South Taranaki District,North Island,NZ
4592,Mangawhio,Taranaki,174.7245,-39.7201,South Taranaki District,North Island,NZ
4597,Matukuroa,Taranaki,174.5409,-39.7038,South Taranaki District,North Island,NZ
4598,Hurleyville,Taranaki,174.4858,-39.6331,South Taranaki District,North Island,NZ
4610,Hawera,Taranaki,174.2825,-39.5854,South Taranaki District,North Island,NZ
4612,Manaia,Taranaki,174.1251,-39.5512,South Taranaki District,North Island,NZ
4614,Normanby,Taranaki,174.2726,-39.5417,South Taranaki District,North Island,NZ
4616,Opunake,Taranaki,173.8572,-39.4523,South Taranaki District,North Island,NZ
4625,Ohakune,Manawatu-Wanganui,175.4031,-39.4103,Ruapehu District,North Island,NZ
4632,Raetihi,Manawatu-Wanganui,175.2878,-39.4286,Ruapehu District,North Island,NZ
4640,Hawera,Taranaki,174.2837,-39.59,South Taranaki District,North Island,NZ
4641,Manaia,Taranaki,174.125,-39.5515,South Taranaki District,North Island,NZ
4642,Kaponga,Taranaki,174.1506,-39.4293,South Taranaki District,North Island,NZ
4645,Opunake,Taranaki,173.8585,-39.4539,South Taranaki District,North Island,NZ
4646,Raetihi,Manawatu-Wanganui,175.2765,-39.4259,Ruapehu District,North Island,NZ
4660,Ohakune,Manawatu-Wanganui,175.3987,-39.4176,Ruapehu District,North Island,NZ
4671,Okaiawa,Taranaki,174.1949,-39.5534,South Taranaki District,North Island,NZ
4672,Meremere,Taranaki,174.3894,-39.5673,South Taranaki District,North Island,NZ
4673,Te Roti,Taranaki,174.2924,-39.4856,South Taranaki District,North Island,NZ
4674,Ararata,Taranaki,174.3533,-39.528,South Taranaki District,North Island,NZ
4675,Matapu,Taranaki,174.2201,-39.5066,South Taranaki District,North Island,NZ
4678,Kaupokonui,Taranaki,174.079,-39.5139,South Taranaki District,North Island,NZ
4679,Riverlea,Taranaki,174.0879,-39.4256,South Taranaki District,North Island,NZ
4681,Oaonui,Taranaki,173.8804,-39.3861,South Taranaki District,North Island,NZ
4682,Waiteika,Taranaki,173.9364,-39.4564,South Taranaki District,North Island,NZ
4684,Upper Kahui,Taranaki,173.8783,-39.3292,South Taranaki District,North Island,NZ
4685,Parihaka Pa,Taranaki,173.825,-39.2896,South Taranaki District,North Island,NZ
4691,Rangataua,Manawatu-Wanganui,175.5524,-39.3296,Ruapehu District,North Island,NZ
4694,Raetihi,Manawatu-Wanganui,175.1922,-39.477,Ruapehu District,North Island,NZ
4696,Te Ranga,Manawatu-Wanganui,175.1762,-39.2854,Ruapehu District,North Island,NZ
4702,FEILDING,Manawatu-Wanganui,175.5663,-40.2171,Manawatu District,North Island,NZ
4710,Marton,Manawatu-Wanganui,175.3798,-40.0724,Rangitikei District,North Island,NZ
4720,Taihape,Manawatu-Wanganui,175.7899,-39.6828,Rangitikei District,North Island,NZ
4730,Hunterville,Manawatu-Wanganui,175.5688,-39.9337,Rangitikei District,North Island,NZ
4740,FEILDING,Manawatu-Wanganui,175.5654,-40.2267,Manawatu District,North Island,NZ
4741,Marton,Manawatu-Wanganui,175.3787,-40.0668,Rangitikei District,North Island,NZ
4742,Taihape,Manawatu-Wanganui,175.7982,-39.6773,Rangitikei District,North Island,NZ
4744,Kimbolton,Manawatu-Wanganui,175.7794,-40.0574,Manawatu District,North Island,NZ
4745,Hunterville,Manawatu-Wanganui,175.5685,-39.9371,Rangitikei District,North Island,NZ
4746,Mangaweka,Manawatu-Wanganui,175.7887,-39.8096,Rangitikei District,North Island,NZ
4771,Umutoi,Manawatu-Wanganui,175.9452,-39.9989,Manawatu District,North Island,NZ
4774,Apiti,Manawatu-Wanganui,175.8575,-39.9336,Rangitikei District,North Island,NZ
4775,Colyton,Manawatu-Wanganui,175.6339,-40.213,Palmerston North City,North Island,NZ
4777,Kiwitea,Manawatu-Wanganui,175.7361,-40.0927,Manawatu District,North Island,NZ
4779,Waituna West,Manawatu-Wanganui,175.5853,-40.0865,Manawatu District,North Island,NZ
4780,Rewa,Manawatu-Wanganui,175.6314,-39.9915,Manawatu District,North Island,NZ
4781,Silverhope,Manawatu-Wanganui,175.4387,-39.9088,Rangitikei District,North Island,NZ
4782,Pukeroa,Manawatu-Wanganui,175.5464,-39.8123,Rangitikei District,North Island,NZ
4783,Pakihikura,Manawatu-Wanganui,175.7,-39.9228,Rangitikei District,North Island,NZ
4784,Silverhope,Manawatu-Wanganui,175.5212,-39.9478,Rangitikei District,North Island,NZ
4785,Poukiore,Manawatu-Wanganui,175.6335,-39.8467,Rangitikei District,North Island,NZ
4786,Rewa,Manawatu-Wanganui,175.6052,-39.956,Rangitikei District,North Island,NZ
4787,Cliff Road,Manawatu-Wanganui,175.4852,-40.0513,Rangitikei District,North Island,NZ
4788,Marton,Manawatu-Wanganui,175.3642,-40.0079,Rangitikei District,North Island,NZ
4789,Marton,Manawatu-Wanganui,175.3098,-40.0996,Rangitikei District,North Island,NZ
4791,Raketapauma,Manawatu-Wanganui,175.5897,-39.6042,Rangitikei District,North Island,NZ
4792,Erehwon,Hawke's Bay,175.9477,-39.5457,Rangitikei District,North Island,NZ
4793,Ohotu,Manawatu-Wanganui,175.9334,-39.6785,Rangitikei District,North Island,NZ
4794,Utiku,Manawatu-Wanganui,175.8942,-39.7556,Rangitikei District,North Island,NZ
4795,Waiouru Military Camp,Manawatu-Wanganui,175.8029,-39.471,Rangitikei District,North Island,NZ
4796,Taihape,Manawatu-Wanganui,175.7107,-39.7189,Rangitikei District,North Island,NZ
4797,Ruahine,Manawatu-Wanganui,175.8736,-39.8068,Manawatu District,North Island,NZ
4810,Ashhurst,Manawatu-Wanganui,175.7565,-40.2927,Palmerston North City,North Island,NZ
4814,Foxton,Manawatu-Wanganui,175.2874,-40.4708,Horowhenua District,North Island,NZ
4815,Foxton Beach,Manawatu-Wanganui,175.2318,-40.464,Horowhenua District,North Island,NZ
4816,Ohakea,Manawatu-Wanganui,175.3808,-40.2026,Manawatu District,North Island,NZ
4817,Sanson,Manawatu-Wanganui,175.4228,-40.2188,Manawatu District,North Island,NZ
4818,Bulls,Manawatu-Wanganui,175.3863,-40.1775,Rangitikei District,North Island,NZ
4820,Linton Military Camp,Manawatu-Wanganui,175.5855,-40.4054,Palmerston North,North Island,NZ
4821,Shannon,Manawatu-Wanganui,175.4182,-40.5426,Horowhenua District,North Island,NZ
4822,Tangimoana,Manawatu-Wanganui,175.2564,-40.2929,Manawatu District,North Island,NZ
4825,Waiouru,Manawatu-Wanganui,175.6798,-39.4009,Ruapehu,North Island,NZ
4826,Waiouru Military Camp,Manawatu-Wanganui,175.6851,-39.4712,Ruapehu District,North Island,NZ
4847,Ashhurst,Manawatu-Wanganui,175.7552,-40.2902,Palmerston North City,North Island,NZ
4848,Foxton,Manawatu-Wanganui,175.2812,-40.4749,Horowhenua District,North Island,NZ
4849,Foxton Beach,Manawatu-Wanganui,175.2382,-40.4683,Horowhenua District,North Island,NZ
4860,Shannon,Manawatu-Wanganui,175.4138,-40.5496,Horowhenua District,North Island,NZ
4861,Waiouru,Manawatu-Wanganui,175.6686,-39.4759,Ruapehu District,North Island,NZ
4862,Sanson,Manawatu-Wanganui,175.4242,-40.2198,Manawatu District,North Island,NZ
4863,Bulls,Manawatu-Wanganui,175.3864,-40.174,Rangitikei District,North Island,NZ
4864,Tokomaru,Manawatu-Wanganui,175.5097,-40.4745,Horowhenua District,North Island,NZ
4865,Rongotea,Manawatu-Wanganui,175.4249,-40.293,Manawatu District,North Island,NZ
4866,Longburn,Manawatu-Wanganui,175.5453,-40.383,Palmerston North City,North Island,NZ
4867,Bunnythorpe,Manawatu-Wanganui,175.6311,-40.2825,Palmerston North City,North Island,NZ
4884,Pohangina,Manawatu-Wanganui,175.8664,-40.1382,Manawatu District,North Island,NZ
4891,Himatangi,Manawatu-Wanganui,175.2974,-40.3928,Horowhenua District,North Island,NZ
4893,Marotiri,Manawatu-Wanganui,175.3291,-40.485,Horowhenua District,North Island,NZ
4894,Bulls,Manawatu-Wanganui,175.293,-40.1941,Rangitikei District,North Island,NZ
4900,Eketahuna,Manawatu-Wanganui,175.7023,-40.6497,Tararua District,North Island,NZ
4910,Pahiatua,Manawatu-Wanganui,175.8395,-40.4548,Tararua District,North Island,NZ
4920,Woodville,Manawatu-Wanganui,175.8663,-40.3337,Tararua District,North Island,NZ
4930,Dannevirke,Manawatu-Wanganui,176.1022,-40.209,Tararua District,North Island,NZ
4940,Eketahuna,Manawatu-Wanganui,175.7031,-40.6454,Tararua District,North Island,NZ
4941,Pahiatua,Manawatu-Wanganui,175.8422,-40.4521,Tararua District,North Island,NZ
4942,Dannevirke,Manawatu-Wanganui,176.0966,-40.2098,Tararua District,North Island,NZ
4943,Norsewood,Manawatu-Wanganui,176.2163,-40.0694,Tararua District,North Island,NZ
4944,Pongaroa,Manawatu-Wanganui,176.1906,-40.5426,Tararua District,North Island,NZ
4945,Woodville,Manawatu-Wanganui,175.8689,-40.3378,Tararua District,North Island,NZ
4970,Ti-tree Point,Hawke's Bay,176.4123,-40.3934,Central Hawke's Bay District,North Island,NZ
4971,Waipatiki,Manawatu-Wanganui,176.1816,-40.355,Tararua District,North Island,NZ
4972,Kiritaki,Manawatu-Wanganui,176.006,-40.2398,Tararua District,North Island,NZ
4973,Waipatiki,Manawatu-Wanganui,176.2901,-40.2554,Tararua District,North Island,NZ
4974,Ngamoko,Manawatu-Wanganui,176.1951,-40.0491,Tararua District,North Island,NZ
4975,Tahoraiti,Manawatu-Wanganui,176.0999,-40.3018,Tararua District,North Island,NZ
4976,Raumati,Manawatu-Wanganui,176.1673,-40.1995,Tararua District,North Island,NZ
4977,Makotuku,Manawatu-Wanganui,176.2232,-40.124,Tararua District,North Island,NZ
4978,Piripiri,Manawatu-Wanganui,176.0556,-40.141,Tararua District,North Island,NZ
4979,Waione,Manawatu-Wanganui,176.301,-40.4364,Tararua District,North Island,NZ
4981,Kaitawa,Manawatu-Wanganui,175.8807,-40.5303,Tararua District,North Island,NZ
4982,Ngaturi,Manawatu-Wanganui,175.9762,-40.4288,Tararua District,North Island,NZ
4983,Ballance,Manawatu-Wanganui,175.767,-40.3984,Tararua District,North Island,NZ
4984,Konini,Manawatu-Wanganui,175.7673,-40.5081,Tararua District,North Island,NZ
4985,Makuri,Manawatu-Wanganui,176.0472,-40.4982,Tararua District,North Island,NZ
4986,Haunui,Manawatu-Wanganui,175.958,-40.5926,Tararua District,North Island,NZ
4987,Konini,Manawatu-Wanganui,175.7835,-40.522,Tararua District,North Island,NZ
4988,Mangamaire,Manawatu-Wanganui,175.6967,-40.5086,Tararua District,North Island,NZ
4989,Makuri,Manawatu-Wanganui,176.0492,-40.5302,Tararua District,North Island,NZ
4990,Waimiro,Manawatu-Wanganui,176.1541,-40.4787,Tararua District,North Island,NZ
4991,Aohanga,Manawatu-Wanganui,176.3283,-40.6126,Tararua District,North Island,NZ
4992,Waione,Manawatu-Wanganui,176.2536,-40.5133,Tararua District,North Island,NZ
4993,Tane,Manawatu-Wanganui,175.791,-40.5785,Tararua District,North Island,NZ
4994,Eketahuna,Wellington,175.6726,-40.6634,Masterton District,North Island,NZ
4995,Nireaha,Manawatu-Wanganui,175.6436,-40.5863,Tararua District,North Island,NZ
4996,Tiraumea,Wellington,175.9936,-40.6679,Masterton District,North Island,NZ
4997,Hopelands,Manawatu-Wanganui,175.9944,-40.3626,Tararua District,North Island,NZ
4998,Papatawa,Manawatu-Wanganui,175.9108,-40.2855,Tararua District,North Island,NZ
4999,Woodville,Manawatu-Wanganui,175.834,-40.3205,Tararua District,North Island,NZ
5010,Lower Hutt Central,Wellington,174.9198,-41.1971,Lower Hutt,North Island,NZ
5011,Avalon,Wellington,174.9522,-41.1943,Lower Hutt,North Island,NZ
5012,Petone,Wellington,174.8757,-41.2338,Lower Hutt City,North Island,NZ
5013,Days Bay,Wellington,174.8854,-41.3154,Lower Hutt,North Island,NZ
5014,Wainuiomata,Wellington,174.9483,-41.2634,Lower Hutt City,North Island,NZ
5016,Horokiwi,Wellington,174.8499,-41.2128,Wellington,North Island,NZ
5018,Upper Hutt Central,Wellington,175.0935,-41.1195,Upper Hutt,North Island,NZ
5019,Stokes Valley,Wellington,174.9949,-41.1703,Upper Hutt,North Island,NZ
5022,Titahi Bay,Wellington,174.8198,-41.1245,Porirua,North Island,NZ
5024,Porirua East,Wellington,174.8788,-41.1304,Porirua,North Island,NZ
5026,Plimmerton,Wellington,174.8705,-41.0629,Porirua,North Island,NZ
5028,Tawa,Wellington,174.8503,-41.175,Wellington,North Island,NZ
5032,Paraparaumu,Wellington,174.9695,-40.8948,Kapiti Coast,North Island,NZ
5034,Paekakariki,Wellington,174.9682,-40.9769,Kapiti Coast District,North Island,NZ
5036,Waikanae,Wellington,175.0507,-40.8733,Kapiti Coast District,North Island,NZ
5040,Alicetown,Wellington,174.9015,-41.2095,Lower Hutt City,North Island,NZ
5041,Taita,Wellington,174.9476,-41.1986,Lower Hutt City,North Island,NZ
5042,Lower Hutt,Wellington,174.922,-41.2148,Lower Hutt City,North Island,NZ
5043,Gracefield,Wellington,174.9053,-41.2271,Lower Hutt City,North Island,NZ
5044,Naenae,Wellington,174.9358,-41.1988,Lower Hutt City,North Island,NZ
5045,Petone,Wellington,174.8662,-41.2253,Lower Hutt City,North Island,NZ
5046,Petone,Wellington,174.8795,-41.2255,Lower Hutt City,North Island,NZ
5047,Eastbourne,Wellington,174.8985,-41.2906,Lower Hutt City,North Island,NZ
5048,Wainuiomata,Wellington,174.9457,-41.2608,Lower Hutt City,North Island,NZ
5049,Homedale,Wellington,174.9546,-41.2725,Lower Hutt City,North Island,NZ
5050,Maungaraki,Wellington,174.8783,-41.209,Lower Hutt City,North Island,NZ
5140,Kingsley Heights,Wellington,175.0737,-41.124,Upper Hutt City,North Island,NZ
5141,Stokes Valley,Wellington,174.9816,-41.1745,Lower Hutt City,North Island,NZ
5142,Silverstream,Wellington,175.012,-41.148,Upper Hutt City,North Island,NZ
5143,Trentham,Wellington,175.0342,-41.138,Upper Hutt City,North Island,NZ
5240,Ranui Heights,Wellington,174.8403,-41.1349,Porirua City,North Island,NZ
5242,Onepoto,Wellington,174.838,-41.1086,Porirua City,North Island,NZ
5243,Cannons Creek,Wellington,174.8654,-41.1416,Porirua City,North Island,NZ
5245,Whitby,Wellington,174.8933,-41.1178,Porirua City,North Island,NZ
5247,Paremata,Wellington,174.8686,-41.0933,Porirua City,North Island,NZ
5249,Linden,Wellington,174.8247,-41.1703,Wellington City,North Island,NZ
5250,Waikanae,Wellington,175.0642,-40.8767,Kapiti Coast District,North Island,NZ
5252,Paraparaumu Beach,Wellington,174.9811,-40.8939,Kapiti Coast District,North Island,NZ
5254,Paraparaumu,Wellington,175.0055,-40.9165,Kapiti Coast District,North Island,NZ
5255,Raumati Beach,Wellington,174.9822,-40.9189,Kapiti Coast District,North Island,NZ
5258,Paekakariki,Wellington,174.9515,-40.9884,Kapiti Coast District,North Island,NZ
5371,Upper Hutt,Wellington,175.088,-41.1669,Upper Hutt City,North Island,NZ
5372,Kaitoke,Wellington,175.1665,-41.0519,Upper Hutt City,North Island,NZ
5373,Homedale,Wellington,175.0608,-41.277,Lower Hutt City,North Island,NZ
5381,Pukerua Bay,Wellington,174.9695,-41.0521,Porirua City,North Island,NZ
5391,Reikorangi,Wellington,175.1072,-40.9005,Kapiti Coast District,North Island,NZ
5510,Levin,Manawatu-Wanganui,175.2511,-40.5963,Horowhenua District,North Island,NZ
5512,Otaki,Wellington,175.1404,-40.7402,Kapiti Coast District,North Island,NZ
5540,Levin,Manawatu-Wanganui,175.2866,-40.6222,Horowhenua District,North Island,NZ
5541,Manakau,Manawatu-Wanganui,175.2168,-40.7124,Horowhenua District,North Island,NZ
5542,Otaki,Wellington,175.1389,-40.7526,Kapiti Coast District,North Island,NZ
5543,Otaki,Wellington,175.156,-40.7621,Kapiti Coast District,North Island,NZ
5544,Te Horo,Wellington,175.1192,-40.804,Kapiti Coast District,North Island,NZ
5570,Ohau,Manawatu-Wanganui,175.2619,-40.6766,Horowhenua District,North Island,NZ
5571,Levin,Manawatu-Wanganui,175.3004,-40.621,Horowhenua District,North Island,NZ
5572,Waitarere,Manawatu-Wanganui,175.2628,-40.5336,Horowhenua District,North Island,NZ
5573,Manakau,Wellington,175.2017,-40.7072,Kapiti Coast District,North Island,NZ
5574,Waitarere,Manawatu-Wanganui,175.2388,-40.5584,Horowhenua District,North Island,NZ
5575,Koputaroa,Manawatu-Wanganui,175.3219,-40.5666,Horowhenua District,North Island,NZ
5581,Manakau,Wellington,175.3732,-40.7911,Kapiti Coast District,North Island,NZ
5710,Featherston,Wellington,175.2937,-41.1169,South Wairarapa District,North Island,NZ
5711,Martinborough,Wellington,175.4593,-41.2205,South Wairarapa District,North Island,NZ
5712,Greytown,Wellington,175.4599,-41.0824,South Wairarapa District,North Island,NZ
5713,Carterton,Wellington,175.5229,-41.0281,Carterton District,North Island,NZ
5740,Featherston,Wellington,175.3248,-41.117,South Wairarapa District,North Island,NZ
5741,Martinborough,Wellington,175.4583,-41.2191,South Wairarapa District,North Island,NZ
5742,Greytown,Wellington,175.4603,-41.0802,South Wairarapa District,North Island,NZ
5743,Carterton,Wellington,175.5276,-41.0251,Carterton District,North Island,NZ
5771,Kahutara,Wellington,175.3549,-41.1711,South Wairarapa District,North Island,NZ
5772,Pirinoa,Wellington,175.2716,-41.4073,South Wairarapa District,North Island,NZ
5773,Cross Creek,Wellington,175.2043,-41.2346,South Wairarapa District,North Island,NZ
5781,Pahautea,Wellington,175.3866,-41.3133,South Wairarapa District,North Island,NZ
5782,Waipawa,Wellington,175.5092,-41.4322,South Wairarapa District,North Island,NZ
5783,Martinborough,Wellington,175.432,-41.1866,South Wairarapa District,North Island,NZ
5784,Hinakura,Wellington,175.6286,-41.3109,South Wairarapa District,North Island,NZ
5791,Carterton,Wellington,175.5024,-40.9664,Carterton District,North Island,NZ
5792,Parkvale,Wellington,175.5423,-41.1168,South Wairarapa District,North Island,NZ
5794,Greytown,Wellington,175.4291,-41.1065,South Wairarapa District,North Island,NZ
5810,Masterton,Wellington,175.6535,-40.9516,Masterton District,North Island,NZ
5840,Masterton,Wellington,175.6614,-40.9497,Masterton District,North Island,NZ
5842,Masterton,Wellington,175.6487,-40.9581,Masterton District,North Island,NZ
5871,Bideford,Wellington,175.8391,-40.8459,Masterton District,North Island,NZ
5872,Riversdale Beach,Wellington,176.0402,-41.0602,Carterton District,North Island,NZ
5881,Kopuaranga,Wellington,175.5948,-40.8215,Masterton District,North Island,NZ
5882,Mauriceville,Wellington,175.7584,-40.7872,Masterton District,North Island,NZ
5883,Homewood,Wellington,175.8129,-41.215,Carterton District,North Island,NZ
5884,Gladstone,Wellington,175.6531,-41.116,Masterton District,North Island,NZ
5885,Masterton,Wellington,175.6525,-40.983,Masterton District,North Island,NZ
5886,Upper Tauheru,Wellington,175.7476,-40.8768,Masterton District,North Island,NZ
5887,Clareville,Wellington,175.6125,-41.0162,Carterton District,North Island,NZ
5888,Solway,Wellington,175.5684,-40.9051,Masterton District,North Island,NZ
5889,Tinui,Wellington,176.0156,-40.8671,Masterton District,North Island,NZ
5890,Tauweru,Wellington,175.8675,-41.0722,Masterton District,North Island,NZ
5894,Tinui,Wellington,176.0837,-40.7768,Masterton District,North Island,NZ
6011,Wellington Central,Wellington,174.7842,-41.2829,Wellington,North Island,NZ
6012,Northland,Wellington,174.7405,-41.2869,Wellington,North Island,NZ
6021,Brooklyn,Wellington,174.779,-41.3052,Wellington,North Island,NZ
6022,Strathmore Park,Wellington,174.8166,-41.3155,Wellington,North Island,NZ
6023,Happy Valley,Wellington,174.7506,-41.3375,Wellington,North Island,NZ
6035,Khandallah,Wellington,174.7942,-41.2466,Wellington City,North Island,NZ
6037,Johnsonville,Wellington,174.7805,-41.1951,Wellington,North Island,NZ
6140,Mount Victoria,Wellington,174.7794,-41.2809,Wellington City,North Island,NZ
6141,Mount Victoria,Wellington,174.7762,-41.2942,Wellington City,North Island,NZ
6142,Mount Victoria,Wellington,174.7757,-41.2902,Wellington City,North Island,NZ
6143,Kelburn,Wellington,174.775,-41.2825,Wellington City,North Island,NZ
6144,Kaiwharawhara,Wellington,174.778,-41.2759,Wellington City,North Island,NZ
6145,Kelburn,Wellington,174.7761,-41.2798,Wellington City,North Island,NZ
6146,Mount Victoria,Wellington,174.7763,-41.2838,Wellington City,North Island,NZ
6147,Karori,Wellington,174.7368,-41.2851,Wellington City,North Island,NZ
6148,Mount Victoria,Wellington,174.7752,-41.2842,Wellington City,North Island,NZ
6149,Wellington,Wellington,174.7831,-41.2942,Wellington City,North Island,NZ
6150,Kelburn,Wellington,174.7618,-41.289,Wellington City,North Island,NZ
6160,Kelburn,Wellington,174.7775,-41.2776,Wellington City,North Island,NZ
6241,Rongotai,Wellington,174.7942,-41.3194,Wellington City,North Island,NZ
6242,Berhampore,Wellington,174.7795,-41.3133,Wellington City,North Island,NZ
6243,Miramar,Wellington,174.8159,-41.316,Wellington City,North Island,NZ
6244,Strathmore Park,Wellington,174.8103,-41.3331,Wellington City,North Island,NZ
6440,Newlands,Wellington,174.807,-41.223,Wellington City,North Island,NZ
6441,Ngaio,Wellington,174.7909,-41.2464,Wellington City,North Island,NZ
6442,Newlands,Wellington,174.8229,-41.2227,Wellington City,North Island,NZ
6443,Ngaio,Wellington,174.773,-41.2512,Wellington City,North Island,NZ
6972,Karori West,Wellington,174.6811,-41.2839,Wellington City,North Island,NZ
7005,Mapua,Tasman,173.0951,-41.2456,Tasman District,South Island,NZ
7007,Murchison,Tasman,172.3292,-41.8066,Tasman District,South Island,NZ
7010,Nelson Central,Nelson,173.3357,-41.2881,Nelson,South Island,NZ
7011,Nelson Airport,Nelson,173.2432,-41.3097,Nelson,South Island,NZ
7020,Richmond,Nelson,173.185,-41.3437,Nelson City,South Island,NZ
7022,Brightwater,Tasman,173.1066,-41.3743,Tasman District,South Island,NZ
7025,Wakefield,Tasman,173.0398,-41.406,Tasman District,South Island,NZ
7040,Nelson East,Nelson,173.2837,-41.271,Nelson City,South Island,NZ
7041,Stoke,Nelson,173.2328,-41.3146,Nelson City,South Island,NZ
7042,Nelson South,Nelson,173.2766,-41.2744,Nelson City,South Island,NZ
7043,Port Nelson,Nelson,173.2774,-41.265,Nelson City,South Island,NZ
7044,Wakatu,Nelson,173.2426,-41.301,Nelson City,South Island,NZ
7045,Nelson,Nelson,173.2772,-41.2832,Nelson City,South Island,NZ
7046,Nelson South,Nelson,173.2699,-41.281,,South Island,NZ
7047,Nelson East,Nelson,173.2944,-41.269,Nelson City,South Island,NZ
7048,Mapua,Tasman,173.0958,-41.2532,Tasman District,South Island,NZ
7049,Murchison,Tasman,172.3257,-41.8003,Tasman District,South Island,NZ
7050,Richmond,Tasman,173.1848,-41.3385,Tasman District,South Island,NZ
7051,Brightwater,Tasman,173.11,-41.3765,Tasman District,South Island,NZ
7052,Wakefield,Tasman,173.0428,-41.4062,Tasman District,South Island,NZ
7053,Saint Arnaud,Tasman,172.8462,-41.8025,Tasman District,South Island,NZ
7054,Collingwood,Tasman,172.6823,-40.6764,Tasman District,South Island,NZ
7055,Tapawera,Tasman,172.8237,-41.389,Tasman District,South Island,NZ
7071,Hira,Nelson,173.4167,-41.1983,Nelson City,South Island,NZ
7072,Lake Rotoroa,Tasman,172.678,-41.8618,Tasman District,South Island,NZ
7073,Baton,Tasman,172.5673,-41.1442,Tasman District,South Island,NZ
7077,Matakitaki,Tasman,172.433,-41.941,Tasman District,South Island,NZ
7081,Richmond,Nelson,173.1862,-41.3498,Nelson City,South Island,NZ
7091,Brightwater,Tasman,173.1111,-41.4317,Tasman District,South Island,NZ
7095,Hiwipango,Tasman,172.9526,-41.5222,Tasman District,South Island,NZ
7096,Motupiko,Tasman,172.8166,-41.4449,Tasman District,South Island,NZ
7100,Havelock,Marlborough,173.7574,-41.2818,Marlborough District,South Island,NZ
7110,Takaka,Tasman,172.8102,-40.8562,Tasman District,South Island,NZ
7120,Motueka,Tasman,173.0119,-41.1188,Tasman,South Island,NZ
7142,Takaka,Tasman,172.8059,-40.8595,Tasman District,South Island,NZ
7143,Port Motueka,Tasman,173.0112,-41.1127,Tasman District,South Island,NZ
7144,Upper Moutere,Tasman,173.0061,-41.2696,Tasman District,South Island,NZ
7145,Rai Valley,Marlborough,173.5831,-41.228,Marlborough District,South Island,NZ
7146,Riwaka,Tasman,172.9971,-41.085,Tasman District,South Island,NZ
7150,Havelock,Marlborough,173.767,-41.2786,Marlborough District,South Island,NZ
7173,Mahana,Tasman,173.0318,-41.2375,Tasman District,South Island,NZ
7175,Braeburn,Tasman,172.9868,-41.2153,Tasman District,South Island,NZ
7178,Havelock,Marlborough,173.7316,-41.3084,Marlborough District,South Island,NZ
7182,Onekaka,Tasman,172.737,-40.7728,Tasman District,South Island,NZ
7183,East Takaka,Tasman,172.8863,-40.9481,Tasman District,South Island,NZ
7192,Tinline,Marlborough,173.5246,-41.2755,Marlborough District,South Island,NZ
7193,Kapowai,Marlborough,173.8039,-40.9131,Marlborough District,South Island,NZ
7194,Rai Valley,Marlborough,173.6329,-41.1742,Marlborough District,South Island,NZ
7195,Tira-ora,Marlborough,173.8206,-41.1272,Marlborough District,South Island,NZ
7196,Ngatimoti,Tasman,172.8726,-41.2123,Tasman District,South Island,NZ
7197,Sandy Bay,Tasman,172.9848,-41.0172,Tasman District,South Island,NZ
7198,Kairuru,Tasman,172.9351,-41.0302,Tasman District,South Island,NZ
7201,Blenheim Central,Marlborough,173.9572,-41.5456,Marlborough,South Island,NZ
7202,Spring Creek,Marlborough,173.9648,-41.4767,Marlborough,South Island,NZ
7204,Renwick,Marlborough,173.8293,-41.5056,Marlborough District,South Island,NZ
7206,Woodbourne,Marlborough,173.8649,-41.5149,Marlborough,South Island,NZ
7210,Seddon,Marlborough,174.071,-41.6695,Marlborough District,South Island,NZ
7220,Picton,Marlborough,174.0192,-41.2933,Marlborough District,South Island,NZ
7240,Witherlea,Marlborough,173.9573,-41.5137,Marlborough District,South Island,NZ
7241,Blenheim,Marlborough,173.9353,-41.5093,Marlborough District,South Island,NZ
7242,Witherlea,Marlborough,173.9552,-41.5301,Marlborough District,South Island,NZ
7243,Renwick,Marlborough,173.8276,-41.5077,Marlborough District,South Island,NZ
7244,Spring Creek,Marlborough,173.9618,-41.4611,Marlborough District,South Island,NZ
7246,Tuamarina,Marlborough,173.9632,-41.4301,Marlborough District,South Island,NZ
7247,Seddon,Marlborough,174.076,-41.6736,Marlborough District,South Island,NZ
7248,Ward,Marlborough,174.1308,-41.8292,Marlborough District,South Island,NZ
7250,Picton,Marlborough,174.007,-41.2913,Marlborough District,South Island,NZ
7251,Waikawa,Marlborough,174.0483,-41.2669,Marlborough District,South Island,NZ
7260,Kekerengu,Canterbury,174.0105,-42.0033,Kaikoura District,South Island,NZ
7271,Hillersden,Marlborough,173.4386,-41.7462,Marlborough District,South Island,NZ
7272,Renwick,Marlborough,173.8533,-41.5682,Marlborough District,South Island,NZ
7273,Tuamarina,Marlborough,173.9266,-41.4053,Marlborough District,South Island,NZ
7274,Upcot,Marlborough,173.5384,-41.9176,Marlborough District,South Island,NZ
7275,Te Rou,Marlborough,173.3532,-41.467,Marlborough District,South Island,NZ
7276,Avondale,Marlborough,173.509,-41.7268,Marlborough District,South Island,NZ
7281,Waikawa,Marlborough,174.0824,-41.2286,Marlborough District,South Island,NZ
7282,Manaroa,Marlborough,174.0599,-41.1392,Marlborough District,South Island,NZ
7284,Whakatahuri,Marlborough,174.083,-41.0251,Marlborough District,South Island,NZ
7285,Taimate,Marlborough,174.0725,-41.7703,Marlborough District,South Island,NZ
7300,Kaikoura,Canterbury,173.6889,-42.4066,Kaikoura,South Island,NZ
7310,Cheviot,Canterbury,173.2755,-42.8133,Hurunui District,South Island,NZ
7332,Waiau,Canterbury,173.0461,-42.6533,Hurunui District,South Island,NZ
7334,Hanmer Springs,Canterbury,172.8222,-42.5167,Hurunui District,South Island,NZ
7340,Kaikoura Suburban,Canterbury,173.6637,-42.3891,Kaikoura District,South Island,NZ
7341,Cheviot,Canterbury,173.2738,-42.8123,Hurunui District,South Island,NZ
7343,Waiau,Canterbury,173.0396,-42.6555,Hurunui District,South Island,NZ
7345,Culverden,Canterbury,172.8473,-42.7747,Hurunui District,South Island,NZ
7348,Hawarden,Canterbury,172.6428,-42.9236,Hurunui District,South Island,NZ
7360,Hanmer Springs,Canterbury,172.8294,-42.5213,Hurunui District,South Island,NZ
7371,Langridge,Canterbury,173.5325,-42.1653,Kaikoura District,South Island,NZ
7373,Charwell Forks,Canterbury,173.3735,-42.4375,Hurunui District,South Island,NZ
7374,Goose Bay,Canterbury,173.5086,-42.4831,Kaikoura District,South Island,NZ
7379,Waiau,Canterbury,173.0303,-42.6926,Hurunui District,South Island,NZ
7381,Spotswood,Canterbury,173.2882,-42.7774,Hurunui District,South Island,NZ
7382,Ethelton,Canterbury,173.1121,-42.7904,Hurunui District,South Island,NZ
7383,Domett,Canterbury,173.2276,-42.885,Hurunui District,South Island,NZ
7384,Hawkeswood,Canterbury,173.3387,-42.6505,Hurunui District,South Island,NZ
7385,Masons Flat,Canterbury,172.4233,-42.7342,Hurunui District,South Island,NZ
7387,Tormore,Canterbury,173.0928,-42.9805,Hurunui District,South Island,NZ
7391,Rotherham,Canterbury,172.9548,-42.76,Hurunui District,South Island,NZ
7392,Hanmer Springs,Canterbury,172.5659,-42.5739,Hurunui District,South Island,NZ
7395,Hanmer Springs,Canterbury,172.8612,-42.4038,Hurunui District,South Island,NZ
7400,Rangiora,Canterbury,172.5992,-43.3058,Waimakariri,South Island,NZ
7402,Waikuku,Canterbury,172.7162,-43.2838,Waimakariri,South Island,NZ
7410,Amberley,Canterbury,172.7382,-43.1451,Hurunui District,South Island,NZ
7420,Waikari,Canterbury,172.692,-42.9673,Hurunui District,South Island,NZ
7430,Oxford,Canterbury,172.1896,-43.2993,Waimakariri District,South Island,NZ
7440,Bells,Canterbury,172.5954,-43.3035,Waimakariri District,South Island,NZ
7441,Amberley,Canterbury,172.7302,-43.1546,Hurunui District,South Island,NZ
7442,Waikari,Canterbury,172.6851,-42.9672,Hurunui District,South Island,NZ
7443,Oxford,Canterbury,172.194,-43.2977,Waimakariri District,South Island,NZ
7444,Cust,Canterbury,172.3793,-43.3114,Waimakariri District,South Island,NZ
7445,Sefton,Canterbury,172.6683,-43.2486,Waimakariri District,South Island,NZ
7446,Leithfield,Canterbury,172.7539,-43.2104,Hurunui District,South Island,NZ
7447,Waipara,Canterbury,172.7558,-43.0598,Hurunui District,South Island,NZ
7448,Waikuku Beach,Canterbury,172.7164,-43.2867,Waimakariri District,South Island,NZ
7471,West Eyreton,Canterbury,172.3985,-43.356,Waimakariri District,South Island,NZ
7472,North Loburn,Canterbury,172.5438,-43.1561,Waimakariri District,South Island,NZ
7473,Waikuku,Canterbury,172.6558,-43.2928,Waimakariri District,South Island,NZ
7474,North Loburn,Canterbury,172.3884,-43.2203,Waimakariri District,South Island,NZ
7481,Amberley,Canterbury,172.7248,-43.1628,Waimakariri District,South Island,NZ
7482,Waipara,Canterbury,172.6438,-43.101,Hurunui District,South Island,NZ
7483,Omihi,Canterbury,172.8703,-43.0041,Hurunui District,South Island,NZ
7491,Waikari,Canterbury,172.6468,-42.973,Hurunui District,South Island,NZ
7495,Oxford,Canterbury,172.1779,-43.2101,Waimakariri District,South Island,NZ
7500,Sheffield,Canterbury,172.0202,-43.3895,Selwyn District,South Island,NZ
7510,Darfield,Canterbury,172.1154,-43.4859,Selwyn District,South Island,NZ
7520,Akaroa,Canterbury,172.9632,-43.8126,Christchurch City,South Island,NZ
7540,Sheffield,Canterbury,172.0163,-43.3872,Christchurch City,South Island,NZ
7541,Darfield,Canterbury,172.1106,-43.4898,Selwyn District,South Island,NZ
7542,Akaroa,Canterbury,172.9668,-43.8053,Christchurch City,South Island,NZ
7543,Kirwee,Canterbury,172.2168,-43.5009,Selwyn District,South Island,NZ
7544,Hororata,Canterbury,171.9775,-43.5436,Selwyn District,South Island,NZ
7545,Duvauchelle,Canterbury,172.9324,-43.7503,Christchurch City,South Island,NZ
7546,Little River,Canterbury,172.791,-43.7703,Christchurch City,South Island,NZ
7548,Doyleston,Canterbury,172.3276,-43.748,Selwyn District,South Island,NZ
7571,Hawkins,Canterbury,172.0706,-43.4717,Selwyn District,South Island,NZ
7572,Lake Coleridge,Canterbury,171.6068,-43.2868,Selwyn District,South Island,NZ
7580,Craigieburn,Canterbury,171.8273,-43.1316,Selwyn District,South Island,NZ
7581,Akaroa,Canterbury,172.9815,-43.8041,Christchurch City,South Island,NZ
7582,Wainui,Canterbury,172.9051,-43.8233,Christchurch City,South Island,NZ
7583,Robinsons Bay,Canterbury,172.9876,-43.7354,Christchurch City,South Island,NZ
7591,Ataahua,Canterbury,172.6341,-43.7998,Christchurch City,South Island,NZ
7600,Burnham,Canterbury,172.2987,-43.6162,Selwyn District,South Island,NZ
7602,Southbridge,Canterbury,172.2416,-43.804,Selwyn District,South Island,NZ
7604,Prebbleton,Canterbury,172.5143,-43.583,Selwyn District,South Island,NZ
7608,Lincoln,Canterbury,172.4835,-43.6416,Selwyn District,South Island,NZ
7610,Woodend,Canterbury,172.6648,-43.3206,Waimakariri District,South Island,NZ
7614,Rolleston,Canterbury,172.377,-43.6013,Selwyn District,South Island,NZ
7616,Springston,Canterbury,172.4224,-43.6444,Selwyn District,South Island,NZ
7630,Kaiapoi,Canterbury,172.6766,-43.3848,Waimakariri District,South Island,NZ
7632,Leeston,Canterbury,172.2977,-43.7612,Selwyn District,South Island,NZ
7640,Lincoln,Canterbury,172.4841,-43.6405,Selwyn District,South Island,NZ
7641,Woodend,Canterbury,172.6659,-43.3224,Waimakariri District,South Island,NZ
7642,Southbridge,Canterbury,172.2516,-43.8115,Selwyn District,South Island,NZ
7643,Rolleston,Canterbury,172.376,-43.5927,Selwyn District,South Island,NZ
7644,Kaiapoi,Canterbury,172.6588,-43.3825,Waimakariri District,South Island,NZ
7645,Tai Tapu,Canterbury,172.5484,-43.6618,Selwyn District,South Island,NZ
7646,Coalgate,Canterbury,171.9644,-43.4833,Selwyn District,South Island,NZ
7647,Lincoln,Canterbury,172.4691,-43.643,Selwyn District,South Island,NZ
7649,Springfield,Canterbury,171.9272,-43.3371,Selwyn District,South Island,NZ
7656,Leeston,Canterbury,172.296,-43.7636,Selwyn District,South Island,NZ
7657,Dunsandel,Canterbury,172.1964,-43.6591,Selwyn District,South Island,NZ
7670,Coutts Island,Canterbury,172.589,-43.4325,Christchurch City,South Island,NZ
7671,Aylesbury,Canterbury,172.213,-43.5419,Christchurch City,South Island,NZ
7672,Motukarara,Canterbury,172.6222,-43.7012,Christchurch City,South Island,NZ
7673,Whitecliffs,Canterbury,171.8825,-43.4603,Selwyn District,South Island,NZ
7674,Springston South,Canterbury,172.4643,-43.7046,Christchurch City,South Island,NZ
7675,Rolleston,Canterbury,172.3476,-43.5966,Selwyn District,South Island,NZ
7676,Templeton,Canterbury,172.4438,-43.5524,Selwyn District,South Island,NZ
7681,Springfield,Canterbury,171.9412,-43.3295,Selwyn District,South Island,NZ
7682,Dunsandel,Canterbury,172.1913,-43.6886,Selwyn District,South Island,NZ
7683,Southbridge,Canterbury,172.2491,-43.7963,Selwyn District,South Island,NZ
7691,Flaxton,Canterbury,172.6477,-43.3547,Waimakariri District,South Island,NZ
7692,Wetheral,Canterbury,172.5762,-43.3948,Waimakariri District,South Island,NZ
7700,Ashburton,Canterbury,171.745,-43.898,Ashburton District,South Island,NZ
7710,Rakaia,Canterbury,172.0272,-43.7547,Ashburton District,South Island,NZ
7730,Methven,Canterbury,171.6437,-43.6323,Ashburton District,South Island,NZ
7740,Hampstead,Canterbury,171.7503,-43.903,Ashburton District,South Island,NZ
7741,Tinwald,Canterbury,171.7206,-43.92,Ashburton District,South Island,NZ
7742,Allenton,Canterbury,171.7427,-43.8874,Ashburton District,South Island,NZ
7743,Rakaia,Canterbury,172.0207,-43.7551,Ashburton District,South Island,NZ
7745,Methven,Canterbury,171.6468,-43.6332,Ashburton District,South Island,NZ
7746,Mount Somers,Canterbury,171.402,-43.7058,Ashburton District,South Island,NZ
7747,Hinds,Canterbury,171.5687,-44.0032,Ashburton District,South Island,NZ
7748,Mayfield,Canterbury,171.4225,-43.8208,Ashburton District,South Island,NZ
7771,Staveley,Canterbury,171.1763,-43.5078,Ashburton District,South Island,NZ
7772,Mitcham,Canterbury,171.8593,-43.7966,Ashburton District,South Island,NZ
7773,Hinds,Canterbury,171.5171,-44.0609,Ashburton District,South Island,NZ
7774,Flemington,Canterbury,171.7093,-44.0196,Ashburton District,South Island,NZ
7775,Lismore,Canterbury,171.471,-43.9232,Ashburton District,South Island,NZ
7776,Lyndhurst,Canterbury,171.6736,-43.7501,Ashburton District,South Island,NZ
7777,Seafield,Canterbury,171.9202,-43.9445,Ashburton District,South Island,NZ
7778,Mayfield,Canterbury,171.4252,-43.8003,Ashburton District,South Island,NZ
7781,Dorie,Canterbury,172.0759,-43.8524,Ashburton District,South Island,NZ
7782,Highbank,Canterbury,171.7097,-43.5682,Selwyn District,South Island,NZ
7783,Te Pirita,Canterbury,171.9801,-43.677,Selwyn District,South Island,NZ
7784,Somerton,Canterbury,171.9081,-43.7301,Ashburton District,South Island,NZ
7791,Lake Coleridge,Canterbury,171.332,-43.3864,Ashburton District,South Island,NZ
7802,Cobden,West Coast,171.2586,-42.4169,Grey,South Island,NZ
7803,Runanga,West Coast,171.2964,-42.3888,Grey,South Island,NZ
7804,Blackball,West Coast,171.372,-42.382,Grey,South Island,NZ
7805,Kaiata,West Coast,171.2455,-42.5254,Grey,South Island,NZ
7810,Hokitika,West Coast,170.9651,-42.7183,Westland District,South Island,NZ
7811,Hokitika,West Coast,171.0127,-42.7416,Westland District,South Island,NZ
7812,Ross,West Coast,170.8147,-42.9461,Westland District,South Island,NZ
7822,Hector,West Coast,171.8763,-41.6077,Buller District,South Island,NZ
7823,Granity,West Coast,171.8502,-41.6302,Buller District,South Island,NZ
7825,Westport,West Coast,171.5903,-41.7486,Buller,South Island,NZ
7830,Reefton,West Coast,171.8582,-42.1122,Buller District,South Island,NZ
7832,Kumara,West Coast,171.1725,-42.6217,Westland District,South Island,NZ
7840,Cobden,West Coast,171.2108,-42.4491,Grey District,South Island,NZ
7841,Runanga,West Coast,171.2522,-42.402,Grey District,South Island,NZ
7842,Hokitika,West Coast,170.9614,-42.7172,Westland District,South Island,NZ
7843,Ahaura,West Coast,171.5407,-42.3486,Grey District,South Island,NZ
7844,Haast,West Coast,169.0035,-43.862,Westland District,South Island,NZ
7845,Moana,West Coast,171.483,-42.5722,Grey District,South Island,NZ
7846,Ikamatua,West Coast,171.6849,-42.2712,Buller District,South Island,NZ
7847,Springs Junction,West Coast,172.182,-42.3351,Buller District,South Island,NZ
7848,Waimangaroa,West Coast,171.763,-41.714,Buller District,South Island,NZ
7851,Reefton,West Coast,171.8648,-42.1194,Buller District,South Island,NZ
7856,Franz Josef/Waiau,West Coast,170.182,-43.3888,Westland District,South Island,NZ
7857,Whataroa,West Coast,170.3604,-43.262,Westland District,South Island,NZ
7859,Weheka,West Coast,170.0172,-43.4655,Westland District,South Island,NZ
7860,Ross,West Coast,170.8167,-42.8988,Westland District,South Island,NZ
7861,Kumara,West Coast,171.1859,-42.63,Westland District,South Island,NZ
7862,Maruia,West Coast,172.2204,-42.1885,Westland District,South Island,NZ
7863,Harihari,West Coast,170.5572,-43.1491,Westland District,South Island,NZ
7864,Market Cross,West Coast,172.1284,-41.2514,Buller District,South Island,NZ
7865,Charleston,West Coast,171.4381,-41.9073,Buller District,South Island,NZ
7866,Carters Beach,West Coast,171.599,-41.7557,Buller District,South Island,NZ
7867,Hector,West Coast,171.8779,-41.6068,Buller District,South Island,NZ
7871,Ikamatua,West Coast,171.6635,-42.2476,Buller District,South Island,NZ
7872,Bell Hill,West Coast,171.717,-42.5384,Grey District,South Island,NZ
7873,Barrytown,West Coast,171.3227,-42.2469,Grey District,South Island,NZ
7875,Aickens,West Coast,171.6001,-42.8109,Grey District,South Island,NZ
7881,Kowhitirangi,West Coast,171.138,-42.907,Westland District,South Island,NZ
7882,Goldsborough,West Coast,171.1127,-42.6852,Westland District,South Island,NZ
7883,Kowhitirangi,West Coast,170.9152,-42.886,Westland District,South Island,NZ
7884,Harihari,West Coast,170.6262,-43.1353,Westland District,South Island,NZ
7885,Fergusons,West Coast,170.8442,-43.0658,Westland District,South Island,NZ
7886,Mahitahi,West Coast,169.3817,-43.7673,Westland District,South Island,NZ
7891,Mokihinui Mine,West Coast,172.0406,-41.5514,Buller District,South Island,NZ
7892,Te Kuha,West Coast,171.5678,-41.8946,Buller District,South Island,NZ
7893,Oparara,West Coast,172.1609,-41.2059,Buller District,South Island,NZ
7895,Crushington,West Coast,172.0272,-42.1053,Buller District,South Island,NZ
7901,Twizel,Canterbury,170.0746,-44.262,Mackenzie District,South Island,NZ
7903,Pleasant Point,Canterbury,171.1305,-44.2585,Timaru District,South Island,NZ
7910,Timaru Central,Canterbury,171.2285,-44.3864,Timaru,South Island,NZ
7912,Pareora,Canterbury,171.2097,-44.4875,Timaru District,South Island,NZ
7920,Temuka,Canterbury,171.2852,-44.2374,Timaru District,South Island,NZ
7924,Waimate,Canterbury,171.0476,-44.7318,Waimate District,South Island,NZ
7925,Fairlie,Canterbury,170.8289,-44.0947,Mackenzie District,South Island,NZ
7930,Geraldine,Canterbury,171.242,-44.0934,Timaru District,South Island,NZ
7940,Timaru,Canterbury,171.2532,-44.395,Timaru District,South Island,NZ
7941,Puhuka,Canterbury,171.238,-44.3563,Timaru District,South Island,NZ
7942,Parkside,Canterbury,171.2445,-44.3906,Timaru District,South Island,NZ
7943,Kensington,Canterbury,171.2344,-44.4053,Timaru District,South Island,NZ
7944,Twizel,Canterbury,170.1,-44.258,Mackenzie District,South Island,NZ
7945,Lake Tekapo,Canterbury,170.4772,-44.0043,Mackenzie District,South Island,NZ
7946,Glentanner,Canterbury,170.0938,-43.7327,Mackenzie District,South Island,NZ
7947,Pleasant Point,Canterbury,171.1275,-44.2601,Timaru District,South Island,NZ
7948,Temuka,Canterbury,171.2773,-44.244,Timaru District,South Island,NZ
7949,Fairlie,Canterbury,170.8295,-44.0984,Mackenzie District,South Island,NZ
7956,Geraldine,Canterbury,171.2436,-44.0912,Timaru District,South Island,NZ
7957,Cave,Canterbury,170.9524,-44.3103,Timaru District,South Island,NZ
7958,Winchester,Canterbury,171.2782,-44.1851,Timaru District,South Island,NZ
7960,Waimate,Canterbury,171.0476,-44.7334,Waimate District,South Island,NZ
7971,Esk Valley,Canterbury,171.086,-44.53,Waimate District,South Island,NZ
7972,Southburn,Canterbury,171.0532,-44.4575,Timaru District,South Island,NZ
7973,Seadown,Canterbury,171.2918,-44.3175,Timaru District,South Island,NZ
7974,Claremont,Canterbury,171.124,-44.3314,Timaru District,South Island,NZ
7977,Waihaorunga,Canterbury,170.8388,-44.7324,Waimate District,South Island,NZ
7978,Waimate,Canterbury,171.0101,-44.6945,Waimate District,South Island,NZ
7979,Waihao Forks,Canterbury,170.9906,-44.8281,Waimate District,South Island,NZ
7980,Morven,Canterbury,171.1192,-44.8219,Waimate District,South Island,NZ
7982,Hazelburn,Canterbury,170.9986,-44.2151,Timaru District,South Island,NZ
7983,Sutherlands,Canterbury,171.0431,-44.2887,Timaru District,South Island,NZ
7984,Mawaro,Canterbury,170.8526,-44.3312,Waimate District,South Island,NZ
7985,Waitohi Flat,Canterbury,171.1929,-44.204,Timaru District,South Island,NZ
7986,Orton,Canterbury,171.3866,-44.1694,Timaru District,South Island,NZ
7987,Waikarua,Canterbury,170.8816,-44.0577,Mackenzie District,South Island,NZ
7988,Esk Valley,Canterbury,171.0694,-44.5216,Waimate District,South Island,NZ
7990,Sherwood Downs,Canterbury,170.9233,-43.6686,Timaru District,South Island,NZ
7991,Te Moana,Canterbury,171.108,-44.0601,Timaru District,South Island,NZ
7992,Arundel,Canterbury,171.2776,-44.0184,Timaru District,South Island,NZ
7999,Mount Cook National Park,Canterbury,170.1682,-43.9781,Timaru,South Island,NZ
8011,Christchurch Central,Canterbury,172.637,-43.5341,Christchurch,South Island,NZ
8013,Edgeware,Canterbury,175.5503,-44.5772,Christchurch,South Island,NZ
8014,Merivale,Canterbury,172.6204,-43.5136,Christchurch,South Island,NZ
8022,Cashmere,Canterbury,172.6644,-43.5831,Christchurch,South Island,NZ
8023,Sydenham,Canterbury,172.669,-43.5559,Christchurch,South Island,NZ
8024,Addington,Canterbury,172.6024,-43.5565,Christchurch,South Island,NZ
8025,Halswell,Canterbury,172.579,-43.5884,Selwyn District,South Island,NZ
8041,Ilam,Canterbury,172.5813,-43.5225,Christchurch,South Island,NZ
8042,Hornby,Canterbury,172.5174,-43.5294,Selwyn,South Island,NZ
8051,Northwood,Canterbury,172.5247,-43.4611,Christchurch,South Island,NZ
8052,St Albans,Canterbury,172.6257,-43.5008,Christchurch,South Island,NZ
8053,Papanui,Canterbury,172.568,-43.4957,Christchurch,South Island,NZ
8061,Aranui,Canterbury,172.7022,-43.5079,Christchurch City,South Island,NZ
8062,Bromley,Canterbury,172.71,-43.541,Christchurch City,South Island,NZ
8081,Sumner,Canterbury,172.7589,-43.5753,Christchurch City,South Island,NZ
8082,Lyttelton,Canterbury,172.7241,-43.6024,Christchurch City,South Island,NZ
8083,Parklands,Canterbury,172.6875,-43.4492,Christchurch,South Island,NZ
8140,Christchurch,Canterbury,172.6316,-43.5319,Christchurch City,South Island,NZ
8141,Christchurch,Canterbury,172.6392,-43.5286,Christchurch City,South Island,NZ
8142,Christchurch,Canterbury,172.6403,-43.5352,Christchurch City,South Island,NZ
8143,Saint Albans,Canterbury,172.6377,-43.5136,Christchurch City,South Island,NZ
8144,Christchurch,Canterbury,172.6307,-43.5241,Christchurch City,South Island,NZ
8145,Opawa,Canterbury,172.6585,-43.5404,Christchurch City,South Island,NZ
8146,Saint Albans,Canterbury,172.622,-43.5127,Christchurch City,South Island,NZ
8147,Linwood,Canterbury,172.6573,-43.5302,Christchurch City,South Island,NZ
8148,Avonside,Canterbury,172.6559,-43.5177,Christchurch City,South Island,NZ
8149,Spreydon,Canterbury,172.6083,-43.5451,Christchurch City,South Island,NZ
8240,Sydenham,Canterbury,172.6365,-43.5452,Christchurch City,South Island,NZ
8241,Woolston,Canterbury,172.6842,-43.5498,Christchurch City,South Island,NZ
8242,Beckenham,Canterbury,172.6366,-43.5579,Christchurch City,South Island,NZ
8243,Spreydon,Canterbury,172.6085,-43.5457,Christchurch City,South Island,NZ
8244,Somerfield,Canterbury,172.6189,-43.5571,Christchurch City,South Island,NZ
8245,Halswell,Canterbury,172.567,-43.5802,Christchurch City,South Island,NZ
8246,Hillsborough,Canterbury,172.6542,-43.558,Christchurch City,South Island,NZ
8247,Mount Pleasant,Canterbury,172.7026,-43.5574,Christchurch City,South Island,NZ
8440,Riccarton,Canterbury,172.6012,-43.5298,Christchurch City,South Island,NZ
8441,Hornby,Canterbury,172.5252,-43.5432,Christchurch City,South Island,NZ
8442,Upper Riccarton,Canterbury,172.5723,-43.5318,Christchurch City,South Island,NZ
8443,Wigram,Canterbury,172.5559,-43.5384,Christchurch City,South Island,NZ
8444,Ilam,Canterbury,172.5718,-43.5167,Christchurch City,South Island,NZ
8445,Templeton,Canterbury,172.4732,-43.5533,Christchurch City,South Island,NZ
8540,Fendalton,Canterbury,172.5884,-43.5177,Christchurch City,South Island,NZ
8542,Papanui,Canterbury,172.6088,-43.4952,Christchurch City,South Island,NZ
8543,Harewood,Canterbury,172.5872,-43.489,Christchurch City,South Island,NZ
8544,Harewood,Canterbury,172.5388,-43.4884,Christchurch City,South Island,NZ
8545,Burnside,Canterbury,172.567,-43.489,Christchurch City,South Island,NZ
8546,Belfast,Canterbury,172.6324,-43.4454,Christchurch City,South Island,NZ
8640,Dallington,Canterbury,172.6631,-43.507,Christchurch City,South Island,NZ
8641,New Brighton,Canterbury,172.7287,-43.5073,Christchurch City,South Island,NZ
8642,Bromley,Canterbury,172.6735,-43.533,Christchurch City,South Island,NZ
8643,Aranui,Canterbury,172.7005,-43.5178,Christchurch City,South Island,NZ
8840,Sumner,Canterbury,172.7593,-43.569,Christchurch City,South Island,NZ
8841,Lyttelton,Canterbury,172.7223,-43.603,Christchurch City,South Island,NZ
8842,North New Brighton,Canterbury,172.706,-43.4816,Christchurch City,South Island,NZ
8941,Diamond Harbour,Canterbury,172.7402,-43.6252,Christchurch City,South Island,NZ
8942,Diamond Harbour,Canterbury,178.0457,-45.2397,Chatham Island,South Island,NZ
8971,Allandale,Canterbury,172.6814,-43.6438,Christchurch City,South Island,NZ
8972,Pigeon Bay,Canterbury,172.8054,-43.658,Christchurch City,South Island,NZ
9010,North East Valley,Otago,170.5074,-45.8366,Dunedin,South Island,NZ
9011,Mornington,Otago,170.472,-45.8792,Dunedin City,South Island,NZ
9012,Dunedin South,Otago,170.4912,-45.9059,Dunedin,South Island,NZ
9013,Andersons Bay,Otago,170.5368,-45.8962,Dunedin,South Island,NZ
9014,Portobello,Otago,170.6214,-45.8447,Dunedin,South Island,NZ
9016,Dunedin Central,Otago,170.5119,-45.8714,Dunedin,South Island,NZ
9018,Fairfield,Otago,170.4259,-45.9004,Dunedin,South Island,NZ
9019,Outram,Otago,170.2312,-45.8603,Dunedin City,South Island,NZ
9022,Maia,Otago,170.5626,-45.8534,Dunedin City,South Island,NZ
9023,Port Chalmers,Otago,170.6084,-45.8185,Dunedin,South Island,NZ
9024,Mosgiel,Otago,170.3552,-45.8839,Dunedin City,South Island,NZ
9035,Brighton,Otago,170.337,-45.9397,Dunedin City,South Island,NZ
9040,Maryhill,Otago,170.4796,-45.881,Dunedin City,South Island,NZ
9041,Opoho,Otago,170.5192,-45.855,Dunedin City,South Island,NZ
9042,Kaikorai,Otago,170.4783,-45.8579,Dunedin City,South Island,NZ
9043,North Dunedin,Otago,170.501,-45.8584,Dunedin City,South Island,NZ
9044,Saint Kilda,Otago,170.4994,-45.8944,Dunedin City,South Island,NZ
9045,Caversham,Otago,170.4806,-45.8964,Dunedin City,South Island,NZ
9046,Tainui,Otago,170.5041,-45.9003,Dunedin City,South Island,NZ
9047,Saint Clair,Otago,170.4874,-45.9062,Dunedin City,South Island,NZ
9048,Portobello,Otago,170.6511,-45.8394,Dunedin City,South Island,NZ
9049,Saint Kilda,Otago,170.5154,-45.8976,Dunedin City,South Island,NZ
9050,Port Chalmers,Otago,170.6218,-45.8157,Dunedin City,South Island,NZ
9052,Green Island,Otago,170.4296,-45.9017,Dunedin City,South Island,NZ
9053,Mosgiel,Otago,170.3489,-45.8758,Dunedin City,South Island,NZ
9054,Dunedin,Otago,170.5018,-45.8777,Dunedin City,South Island,NZ
9058,Dunedin,Otago,170.5036,-45.8724,Dunedin City,South Island,NZ
9059,Dunedin,Otago,170.5096,-45.8661,Dunedin City,South Island,NZ
9062,Outram,Otago,170.2312,-45.8566,Dunedin City,South Island,NZ
9067,Middlemarch,Otago,170.119,-45.507,Dunedin City,South Island,NZ
9069,Waitati,Otago,170.5681,-45.7457,Dunedin City,South Island,NZ
9073,Berwick,Otago,170.0903,-45.9556,Dunedin City,South Island,NZ
9074,Clarks,Otago,170.0897,-45.7542,Clutha District,South Island,NZ
9076,Wingatui,Otago,170.3894,-45.8904,Dunedin City,South Island,NZ
9077,Portobello,Otago,170.6419,-45.8414,Dunedin City,South Island,NZ
9081,Mihiwaka,Otago,170.6412,-45.7734,Dunedin City,South Island,NZ
9082,Aramoana,Otago,170.6719,-45.7887,Dunedin City,South Island,NZ
9085,Mount Cargill,Otago,170.5412,-45.7894,Dunedin City,South Island,NZ
9091,Kuri Bush,Otago,170.2184,-46.0502,Dunedin City,South Island,NZ
9092,Mosgiel,Otago,170.3416,-45.8778,Dunedin City,South Island,NZ
9210,Kaitangata,Otago,169.841,-46.2799,Clutha District,South Island,NZ
9220,Milton,Otago,169.9704,-46.1224,Clutha District,South Island,NZ
9230,Balclutha,Otago,169.7372,-46.2388,Clutha District,South Island,NZ
9231,Stirling,Otago,169.7761,-46.2489,Clutha District,South Island,NZ
9240,Balclutha,Otago,169.7388,-46.2388,Clutha District,South Island,NZ
9241,Milton,Otago,169.9577,-46.1225,Clutha District,South Island,NZ
9242,Clydevale,Otago,169.5278,-46.1006,Clutha District,South Island,NZ
9271,Glenomaru,Otago,169.6834,-46.3681,Clutha District,South Island,NZ
9272,Hillend,Otago,169.711,-46.1549,Clutha District,South Island,NZ
9273,Warepa,Otago,169.5825,-46.2563,Clutha District,South Island,NZ
9274,Greenfield,Otago,169.5665,-46.1034,Clutha District,South Island,NZ
9281,Kaitangata,Otago,169.8161,-46.2711,Clutha District,South Island,NZ
9282,Wangaloa,Otago,169.9177,-46.2844,Clutha District,South Island,NZ
9291,Milburn,Otago,169.9467,-46.0511,Clutha District,South Island,NZ
9292,Tokoiti,Otago,169.9725,-46.1673,Clutha District,South Island,NZ
9300,Queenstown,Otago,168.6879,-45.0379,Queenstown-Lakes,South Island,NZ
9302,Arrowtown,Otago,168.83,-44.9446,Queenstown-Lakes District,South Island,NZ
9304,Lower Shotover,Otago,168.7928,-45.002,Queenstown-Lakes District,South Island,NZ
9305,Wanaka,Otago,169.1274,-44.6862,Queenstown-Lakes District,South Island,NZ
9310,Cromwell,Otago,169.1991,-45.042,Central Otago District,South Island,NZ
9320,Alexandra,Otago,169.3859,-45.2502,Central Otago,South Island,NZ
9330,Clyde,Otago,169.3237,-45.1907,Central Otago District,South Island,NZ
9332,Ranfurly,Otago,170.1027,-45.1272,Central Otago District,South Island,NZ
9340,Bridge Hill,Otago,169.3928,-45.2562,Central Otago District,South Island,NZ
9341,Clyde,Otago,169.3169,-45.187,Central Otago District,South Island,NZ
9342,Cromwell,Otago,169.1977,-45.037,Central Otago District,South Island,NZ
9343,Wanaka,Otago,169.1392,-44.6943,Queenstown-Lakes District,South Island,NZ
9344,Albert Town,Otago,169.1886,-44.6826,Queenstown-Lakes District,South Island,NZ
9345,Lake Hawea,Otago,169.2564,-44.6108,Queenstown-Lakes District,South Island,NZ
9346,Makarora,Otago,169.2322,-44.2315,Queenstown-Lakes District,South Island,NZ
9347,Tarras,Otago,169.4117,-44.8376,Central Otago District,South Island,NZ
9348,Queenstown,Otago,168.6622,-45.0319,Queenstown-Lakes District,South Island,NZ
9349,Frankton,Otago,168.731,-45.0159,Queenstown-Lakes District,South Island,NZ
9350,Glenorchy,Otago,168.3841,-44.8498,Queenstown-Lakes District,South Island,NZ
9351,Arrowtown,Otago,168.833,-44.9388,Queenstown-Lakes District,South Island,NZ
9352,Omakau,Otago,169.6023,-45.0939,Central Otago District,South Island,NZ
9353,Ranfurly,Otago,170.0998,-45.1301,Central Otago District,South Island,NZ
9354,Naseby,Otago,170.1467,-45.0232,Central Otago District,South Island,NZ
9355,Wedderburn,Otago,170.01,-45.0301,Central Otago District,South Island,NZ
9356,Mataura,Southland,168.866,-46.1943,Gore District,South Island,NZ
9371,Upper Shotover,Otago,168.7167,-44.8414,Queenstown-Lakes District,South Island,NZ
9372,Glenorchy,Otago,168.3693,-44.7968,Queenstown-Lakes District,South Island,NZ
9376,Matakanui,Otago,169.5416,-45.0071,Central Otago District,South Island,NZ
9377,Becks,Otago,169.7227,-44.9861,Central Otago District,South Island,NZ
9381,Glendhu,Otago,168.9844,-44.767,Central Otago District,South Island,NZ
9382,Makarora Wharf,Otago,168.8713,-44.4032,Queenstown-Lakes District,South Island,NZ
9383,Lindis Crossing,Otago,169.4594,-44.9205,Queenstown-Lakes District,South Island,NZ
9384,Gibbston,Otago,169.0655,-45.0464,Central Otago District,South Island,NZ
9386,Saint Bathans,Otago,169.8647,-44.8322,Central Otago District,South Island,NZ
9387,Moa Creek,Otago,169.7576,-45.2408,Central Otago District,South Island,NZ
9391,Clyde,Otago,169.294,-45.192,Central Otago District,South Island,NZ
9392,Fruitlands,Otago,169.3764,-45.3788,Central Otago District,South Island,NZ
9393,Chatto Creek,Otago,169.4805,-45.1166,Central Otago District,South Island,NZ
9395,Gimmerburn,Otago,169.961,-45.1302,Central Otago District,South Island,NZ
9396,Naseby,Otago,170.1778,-44.9052,Central Otago District,South Island,NZ
9397,Kokonga,Otago,170.2615,-45.2161,Dunedin City,South Island,NZ
9398,Paerau,Otago,169.9176,-45.3578,Central Otago District,South Island,NZ
9400,Oamaru,Otago,170.9784,-45.0928,Waitaki District,South Island,NZ
9401,Weston,Otago,170.931,-45.0941,Waitaki,South Island,NZ
9410,Hampden,Otago,170.7353,-45.3318,Waitaki District,South Island,NZ
9412,Omarama,Canterbury,169.8719,-44.4715,Waitaki,South Island,NZ
9430,Palmerston,Otago,170.7112,-45.4816,Waitaki District,South Island,NZ
9435,Aviemore,Canterbury,170.334,-44.7296,Waitaki,South Island,NZ
9441,Roxburgh,Otago,169.3153,-45.5409,Central Otago District,South Island,NZ
9442,Hampden,Otago,170.8172,-45.3238,Waitaki District,South Island,NZ
9443,Palmerston,Otago,170.7146,-45.4854,Waitaki District,South Island,NZ
9444,Oamaru,Otago,170.9701,-45.0976,Waitaki District,South Island,NZ
9445,Duntroon,Otago,170.6817,-44.8538,Waitaki District,South Island,NZ
9446,Kurow,Canterbury,170.4698,-44.733,Waitaki District,South Island,NZ
9447,Otematata,Canterbury,170.1929,-44.6063,Waitaki District,South Island,NZ
9448,Omarama,Canterbury,169.966,-44.4883,Waitaki District,South Island,NZ
9471,Seacliff,Otago,170.5342,-45.6302,Dunedin City,South Island,NZ
9472,Waikouaiti,Otago,170.646,-45.552,Dunedin City,South Island,NZ
9481,Stoneburn,Otago,170.605,-45.4719,Waitaki District,South Island,NZ
9482,Katiki,Otago,170.7892,-45.4259,Waitaki District,South Island,NZ
9483,Macraes Flat,Otago,170.4595,-45.3444,Waitaki District,South Island,NZ
9491,Tokarahi,Canterbury,170.6487,-45.017,Waitaki District,South Island,NZ
9492,Kauru Hill,Otago,170.7251,-45.1101,Waitaki District,South Island,NZ
9493,Hilderthorpe,Otago,171.0596,-44.9948,Waitaki District,South Island,NZ
9494,Island Cliff,Otago,170.7018,-44.9141,Waitaki District,South Island,NZ
9495,Herbert,Otago,170.795,-45.2071,Waitaki District,South Island,NZ
9498,Kaingapai,Canterbury,170.5476,-44.6013,Waimate District,South Island,NZ
9500,Roxburgh,Otago,169.2875,-45.5421,Central Otago District,South Island,NZ
9510,Waikouaiti,Otago,170.6938,-45.5923,Dunedin City,South Island,NZ
9522,Tapanui,Otago,169.2597,-45.9434,Clutha District,South Island,NZ
9532,Lawrence,Otago,169.6862,-45.9189,Clutha District,South Island,NZ
9534,Clinton,Otago,169.379,-46.202,Clutha District,South Island,NZ
9535,Owaka,Otago,169.6592,-46.4524,Clutha District,South Island,NZ
9541,Waikouaiti,Otago,170.6701,-45.5958,Dunedin City,South Island,NZ
9542,Tapanui,Otago,169.2613,-45.9435,Clutha District,South Island,NZ
9543,Lawrence,Otago,169.6866,-45.9129,Clutha District,South Island,NZ
9544,Millers Flat,Otago,169.4118,-45.6629,Central Otago District,South Island,NZ
9546,Owaka,Otago,169.6583,-46.4511,Clutha District,South Island,NZ
9548,Clinton,Otago,169.3741,-46.2023,Clutha District,South Island,NZ
9571,Roxburgh Hydro,Otago,169.4062,-45.4504,Central Otago District,South Island,NZ
9572,Millers Flat,Otago,169.517,-45.6087,Central Otago District,South Island,NZ
9583,Clinton,Otago,169.2557,-46.312,Clutha District,South Island,NZ
9584,Clinton,Otago,169.3947,-46.1678,Clutha District,South Island,NZ
9585,New Haven,Otago,169.704,-46.4584,Clutha District,South Island,NZ
9586,Puketiro,Otago,169.448,-46.4864,Clutha District,South Island,NZ
9587,Park Hill,Otago,169.2347,-45.7378,Central Otago District,South Island,NZ
9588,Raes Junction,Otago,169.475,-45.7799,Central Otago District,South Island,NZ
9591,Beaumont,Otago,169.6184,-45.7898,Clutha District,South Island,NZ
9593,Waitahuna,Otago,169.7257,-45.9805,Clutha District,South Island,NZ
9596,Ngapuna,Otago,170.1501,-45.4417,Dunedin City,South Island,NZ
9597,Rocklands,Otago,170.0034,-45.5953,Dunedin City,South Island,NZ
9598,Ngapuna,Otago,170.2682,-45.5065,Waitaki District,South Island,NZ
9600,Te Anau,Southland,167.7195,-45.4033,Southland District,South Island,NZ
9610,Otautau,Southland,167.9955,-46.1439,Southland District,South Island,NZ
9620,Tuatapere,Southland,167.6766,-46.1327,Southland District,South Island,NZ
9630,Nightcaps,Southland,168.0264,-45.9708,Southland District,South Island,NZ
9635,Ohai,Southland,167.9562,-45.9322,Southland District,South Island,NZ
9640,Te Anau,Southland,167.7164,-45.4152,Southland District,South Island,NZ
9641,Otautau,Southland,167.9974,-46.1435,Southland District,South Island,NZ
9642,Tuatapere,Southland,167.6892,-46.1332,Southland District,South Island,NZ
9643,Manapouri,Southland,167.6092,-45.5661,Southland District,South Island,NZ
9644,Nightcaps,Southland,168.0321,-45.9702,Southland District,South Island,NZ
9645,Ohai,Southland,167.9568,-45.9326,Southland District,South Island,NZ
9672,The Key,Southland,168.0962,-45.3207,Southland District,South Island,NZ
9679,Te Anau,Southland,167.5133,-45.0353,Southland District,South Island,NZ
9682,Eastern Bush,Southland,167.7666,-45.9426,Southland District,South Island,NZ
9683,Fairfax,Southland,168.0818,-46.1885,Southland District,South Island,NZ
9689,Ngaro,Southland,167.9675,-45.9004,Southland District,South Island,NZ
9691,Wairoto,Southland,167.1138,-45.8003,Southland District,South Island,NZ
9710,Gore,Southland,168.9357,-46.0997,Gore,South Island,NZ
9712,Mataura,Southland,168.8673,-46.1902,Gore District,South Island,NZ
9720,Winton,Southland,168.3187,-46.1414,Southland District,South Island,NZ
9730,Lumsden,Southland,168.4462,-45.7391,Southland District,South Island,NZ
9740,East Gore,Southland,168.9448,-46.1,Gore District,South Island,NZ
9741,Winton,Southland,168.3247,-46.1428,Southland District,South Island,NZ
9742,Lumsden,Southland,168.4415,-45.7392,Southland District,South Island,NZ
9743,Waikaka,Southland,169.0145,-45.9215,Southland District,South Island,NZ
9744,Riversdale,Southland,168.7426,-45.9021,Southland District,South Island,NZ
9745,Waikaia,Southland,168.8484,-45.7249,Southland District,South Island,NZ
9746,Balfour,Southland,168.5889,-45.8377,Southland District,South Island,NZ
9747,Mossburn,Southland,168.2389,-45.6698,Southland District,South Island,NZ
9748,Kingston,Otago,168.7237,-45.3381,Queenstown-Lakes District,South Island,NZ
9749,Athol,Southland,168.5739,-45.5095,Southland District,South Island,NZ
9750,Garston,Southland,168.6838,-45.467,Southland District,South Island,NZ
9752,Dipton,Southland,168.3698,-45.8989,Southland District,South Island,NZ
9771,Conical Hills,Southland,169.22,-46.0435,Gore District,South Island,NZ
9772,Pukerau,Southland,169.0657,-46.1897,Gore District,South Island,NZ
9773,Wendon Valley,Southland,168.9263,-45.9083,Gore District,South Island,NZ
9774,Mataura,Southland,168.8082,-46.1756,Southland District,South Island,NZ
9775,Waikoikoi,Southland,169.1213,-45.946,Gore District,South Island,NZ
9776,Riversdale,Southland,168.7116,-45.8847,Gore District,South Island,NZ
9777,Waipounamu,Southland,168.7523,-45.836,Southland District,South Island,NZ
9778,Garston,Southland,168.9768,-45.526,Southland District,South Island,NZ
9779,Balfour,Southland,168.5269,-45.8426,Southland District,South Island,NZ
9781,Lochiel,Southland,168.3909,-46.2018,Southland District,South Island,NZ
9782,Otapiri Gorge,Southland,168.4668,-46.0726,Southland District,South Island,NZ
9783,South Hillend,Southland,168.1991,-45.9932,Southland District,South Island,NZ
9791,Dipton,Southland,168.4293,-45.9097,Southland District,South Island,NZ
9792,Mossburn,Southland,168.2036,-45.6973,Southland District,South Island,NZ
9793,Kingston,Southland,168.6723,-45.3967,Southland District,South Island,NZ
9794,Lumsden,Southland,168.4602,-45.7516,Southland District,South Island,NZ
9810,Waihopai,Southland,168.3722,-46.3894,Invercargill,South Island,NZ
9812,Invercargill Central,Southland,168.3764,-46.4382,Invercargill,South Island,NZ
9814,Bluff,Southland,168.3309,-46.6035,Invercargill City,South Island,NZ
9816,Wallacetown,Southland,168.2904,-46.339,Southland District,South Island,NZ
9818,Stewart Island,Southland,167.8382,-46.9877,,South Island,NZ
9822,Riverton,Southland,168.0165,-46.3631,Southland District,South Island,NZ
9825,Edendale,Southland,168.7938,-46.3084,Southland District,South Island,NZ
9831,Wyndham,Southland,168.8438,-46.3304,Southland District,South Island,NZ
9840,Richmond,Southland,168.3511,-46.4109,Invercargill City,South Island,NZ
9841,Glengarry,Southland,168.3658,-46.3982,Invercargill City,South Island,NZ
9842,East End,Southland,168.3436,-46.5991,Invercargill City,South Island,NZ
9843,Waikiwi,Southland,168.3471,-46.3772,Invercargill City,South Island,NZ
9844,Strathern,Southland,168.3612,-46.4276,Invercargill City,South Island,NZ
9845,Hawthorndale,Southland,168.3853,-46.4017,Invercargill City,South Island,NZ
9846,Half-moon Bay,Southland,168.1292,-46.8992,Southland District,South Island,NZ
9847,Riverton,Southland,168.0136,-46.3522,Southland District,South Island,NZ
9848,Edendale,Southland,168.7842,-46.3132,Southland District,South Island,NZ
9849,Wyndham,Southland,168.8477,-46.3322,Southland District,South Island,NZ
9871,Woodlands,Southland,168.5511,-46.3867,Invercargill City,South Island,NZ
9872,Mabel Bush,Southland,168.5395,-46.2616,Invercargill City,South Island,NZ
9874,Waianiwa,Southland,168.2387,-46.2773,Invercargill City,South Island,NZ
9875,Fortrose,Southland,168.722,-46.553,Southland District,South Island,NZ
9876,Makarewa,Southland,168.4063,-46.3136,Southland District,South Island,NZ
9877,Awarua Plains,Southland,168.4056,-46.5072,Southland District,South Island,NZ
9879,Otatara,Southland,168.2429,-46.4308,Invercargill City,South Island,NZ
9881,Round Hill,Southland,167.811,-46.2657,Southland District,South Island,NZ
9883,Gummies Bush,Southland,168.0316,-46.269,Southland District,South Island,NZ
9884,Niagara,Southland,169.0999,-46.585,Southland District,South Island,NZ
9891,Glenham,Southland,168.8784,-46.4308,Southland District,South Island,NZ
9892,Mokoreta,Southland,169.0861,-46.3907,Gore District,South Island,NZ
9893,Kamahi,Southland,168.7108,-46.3644,Southland District,South Island,NZ
